{
  "type": "FeatureCollection",
  "metadata": {
    "source": "GBIF occurrence search",
    "sourceUrl": "https://www.gbif.org/species/2264689",
    "taxonKey": 2264689,
    "generatedAt": "2026-09-08T12:20:44.161Z",
    "note": "Reusable-license occurrence records, grid-deduplicated to one record per 0.5 degree cell. Not a range boundary."
  },
  "features": [
    {
      "type": "Feature",
      "id": 1085771888,
      "geometry": {
        "type": "Point",
        "coordinates": [
          130.842,
          -12.37917
        ]
      },
      "properties": {
        "scientificName": "Chironex fleckeri Southcott, 1956",
        "datasetTitle": null,
        "occurrenceID": "de3f00fe-2497-41f5-a075-1da8ecac5327",
        "basisOfRecord": "PRESERVED_SPECIMEN",
        "license": "http://creativecommons.org/licenses/by/4.0/legalcode",
        "sourceUrl": "https://www.gbif.org/occurrence/1085771888"
      }
    },
    {
      "type": "Feature",
      "id": 1085771382,
      "geometry": {
        "type": "Point",
        "coordinates": [
          132.1,
          -11.31667
        ]
      },
      "properties": {
        "scientificName": "Chironex fleckeri Southcott, 1956",
        "datasetTitle": null,
        "occurrenceID": "e84c8075-fed2-4856-81a3-98799175cceb",
        "basisOfRecord": "PRESERVED_SPECIMEN",
        "license": "http://creativecommons.org/licenses/by/4.0/legalcode",
        "sourceUrl": "https://www.gbif.org/occurrence/1085771382"
      }
    },
    {
      "type": "Feature",
      "id": 1085770557,
      "geometry": {
        "type": "Point",
        "coordinates": [
          132.39067,
          -12.05917
        ]
      },
      "properties": {
        "scientificName": "Chironex fleckeri Southcott, 1956",
        "datasetTitle": null,
        "occurrenceID": "24886c27-4017-4028-a9d5-2843491d466d",
        "basisOfRecord": "PRESERVED_SPECIMEN",
        "license": "http://creativecommons.org/licenses/by/4.0/legalcode",
        "sourceUrl": "https://www.gbif.org/occurrence/1085770557"
      }
    },
    {
      "type": "Feature",
      "id": 1085770572,
      "geometry": {
        "type": "Point",
        "coordinates": [
          132.23717,
          -12.16483
        ]
      },
      "properties": {
        "scientificName": "Chironex fleckeri Southcott, 1956",
        "datasetTitle": null,
        "occurrenceID": "0f53ec72-27c6-4c05-b838-c80efcd80204",
        "basisOfRecord": "PRESERVED_SPECIMEN",
        "license": "http://creativecommons.org/licenses/by/4.0/legalcode",
        "sourceUrl": "https://www.gbif.org/occurrence/1085770572"
      }
    },
    {
      "type": "Feature",
      "id": 1085770602,
      "geometry": {
        "type": "Point",
        "coordinates": [
          134.9655,
          -12.1545
        ]
      },
      "properties": {
        "scientificName": "Chironex fleckeri Southcott, 1956",
        "datasetTitle": null,
        "occurrenceID": "852f1b18-0606-47cf-a7e9-650d624bddb8",
        "basisOfRecord": "PRESERVED_SPECIMEN",
        "license": "http://creativecommons.org/licenses/by/4.0/legalcode",
        "sourceUrl": "https://www.gbif.org/occurrence/1085770602"
      }
    },
    {
      "type": "Feature",
      "id": 1085770824,
      "geometry": {
        "type": "Point",
        "coordinates": [
          134.1865,
          -12.01933
        ]
      },
      "properties": {
        "scientificName": "Chironex fleckeri Southcott, 1956",
        "datasetTitle": null,
        "occurrenceID": "fbd23577-a31c-4596-a52a-ecd5657a1d99",
        "basisOfRecord": "PRESERVED_SPECIMEN",
        "license": "http://creativecommons.org/licenses/by/4.0/legalcode",
        "sourceUrl": "https://www.gbif.org/occurrence/1085770824"
      }
    },
    {
      "type": "Feature",
      "id": 1100713005,
      "geometry": {
        "type": "Point",
        "coordinates": [
          146.8,
          -19.283333
        ]
      },
      "properties": {
        "scientificName": "Chironex fleckeri Southcott, 1956",
        "datasetTitle": null,
        "occurrenceID": "7be67b85-10d6-45f2-bdd8-85ce24010672",
        "basisOfRecord": "PRESERVED_SPECIMEN",
        "license": "http://creativecommons.org/licenses/by/4.0/legalcode",
        "sourceUrl": "https://www.gbif.org/occurrence/1100713005"
      }
    },
    {
      "type": "Feature",
      "id": 1066739293,
      "geometry": {
        "type": "Point",
        "coordinates": [
          139.596267,
          -17.1135
        ]
      },
      "properties": {
        "scientificName": "Chironex fleckeri Southcott, 1956",
        "datasetTitle": null,
        "occurrenceID": "ff149cb2-3d54-404d-9679-76f69ff3f4b1",
        "basisOfRecord": "PRESERVED_SPECIMEN",
        "license": "http://creativecommons.org/licenses/by/4.0/legalcode",
        "sourceUrl": "https://www.gbif.org/occurrence/1066739293"
      }
    },
    {
      "type": "Feature",
      "id": 1085767891,
      "geometry": {
        "type": "Point",
        "coordinates": [
          136.19517,
          -15.43
        ]
      },
      "properties": {
        "scientificName": "Chironex fleckeri Southcott, 1956",
        "datasetTitle": null,
        "occurrenceID": "2a9c4ad9-c21c-4747-a60d-6c7605a66634",
        "basisOfRecord": "PRESERVED_SPECIMEN",
        "license": "http://creativecommons.org/licenses/by/4.0/legalcode",
        "sourceUrl": "https://www.gbif.org/occurrence/1085767891"
      }
    },
    {
      "type": "Feature",
      "id": 1100711940,
      "geometry": {
        "type": "Point",
        "coordinates": [
          141.86667,
          -12.616667
        ]
      },
      "properties": {
        "scientificName": "Chironex fleckeri Southcott, 1956",
        "datasetTitle": null,
        "occurrenceID": "d782f008-85a2-48b2-a408-9566b9f5c6a3",
        "basisOfRecord": "PRESERVED_SPECIMEN",
        "license": "http://creativecommons.org/licenses/by/4.0/legalcode",
        "sourceUrl": "https://www.gbif.org/occurrence/1100711940"
      }
    },
    {
      "type": "Feature",
      "id": 1272195967,
      "geometry": {
        "type": "Point",
        "coordinates": [
          117.19,
          -20.6366
        ]
      },
      "properties": {
        "scientificName": "Chironex fleckeri Southcott, 1956",
        "datasetTitle": null,
        "occurrenceID": "e358aa79-84bf-4c1e-9db1-3902e5918c16",
        "basisOfRecord": "PRESERVED_SPECIMEN",
        "license": "http://creativecommons.org/licenses/by/4.0/legalcode",
        "sourceUrl": "https://www.gbif.org/occurrence/1272195967"
      }
    },
    {
      "type": "Feature",
      "id": 1066738787,
      "geometry": {
        "type": "Point",
        "coordinates": [
          149.05,
          -20.9
        ]
      },
      "properties": {
        "scientificName": "Chironex fleckeri Southcott, 1956",
        "datasetTitle": null,
        "occurrenceID": "9e318fd6-4ca2-47b7-adf4-39c00bd49918",
        "basisOfRecord": "PRESERVED_SPECIMEN",
        "license": "http://creativecommons.org/licenses/by/4.0/legalcode",
        "sourceUrl": "https://www.gbif.org/occurrence/1066738787"
      }
    },
    {
      "type": "Feature",
      "id": 1272195970,
      "geometry": {
        "type": "Point",
        "coordinates": [
          125.2167,
          -17.3166
        ]
      },
      "properties": {
        "scientificName": "Chironex fleckeri Southcott, 1956",
        "datasetTitle": null,
        "occurrenceID": "7055ae74-e694-4048-baed-7c3f7883bd66",
        "basisOfRecord": "PRESERVED_SPECIMEN",
        "license": "http://creativecommons.org/licenses/by/4.0/legalcode",
        "sourceUrl": "https://www.gbif.org/occurrence/1272195970"
      }
    },
    {
      "type": "Feature",
      "id": 1100711124,
      "geometry": {
        "type": "Point",
        "coordinates": [
          145.76666,
          -16.916666
        ]
      },
      "properties": {
        "scientificName": "Chironex fleckeri Southcott, 1956",
        "datasetTitle": null,
        "occurrenceID": "d0a0b8cb-5059-4d20-b00e-03124d20fe79",
        "basisOfRecord": "PRESERVED_SPECIMEN",
        "license": "http://creativecommons.org/licenses/by/4.0/legalcode",
        "sourceUrl": "https://www.gbif.org/occurrence/1100711124"
      }
    },
    {
      "type": "Feature",
      "id": 3749232244,
      "geometry": {
        "type": "Point",
        "coordinates": [
          146.810978,
          -19.24
        ]
      },
      "properties": {
        "scientificName": "Chironex fleckeri Southcott, 1956",
        "datasetTitle": null,
        "occurrenceID": "da3730eb-62f3-4ccf-9997-290db8066850",
        "basisOfRecord": "PRESERVED_SPECIMEN",
        "license": "http://creativecommons.org/licenses/by/4.0/legalcode",
        "sourceUrl": "https://www.gbif.org/occurrence/3749232244"
      }
    },
    {
      "type": "Feature",
      "id": 1272683390,
      "geometry": {
        "type": "Point",
        "coordinates": [
          146.1,
          -17.78
        ]
      },
      "properties": {
        "scientificName": "Chironex fleckeri Southcott, 1956",
        "datasetTitle": null,
        "occurrenceID": "473e382b-afb3-42aa-8ea4-ca5db788a736",
        "basisOfRecord": "PRESERVED_SPECIMEN",
        "license": "http://creativecommons.org/publicdomain/zero/1.0/legalcode",
        "sourceUrl": "https://www.gbif.org/occurrence/1272683390"
      }
    },
    {
      "type": "Feature",
      "id": 5276670864,
      "geometry": {
        "type": "Point",
        "coordinates": [
          148.76666,
          -20.483334
        ]
      },
      "properties": {
        "scientificName": "Chironex fleckeri Southcott, 1956",
        "datasetTitle": null,
        "occurrenceID": "414ba076-2888-43bd-aab0-dc860cb7166a",
        "basisOfRecord": "PRESERVED_SPECIMEN",
        "license": "http://creativecommons.org/licenses/by/4.0/legalcode",
        "sourceUrl": "https://www.gbif.org/occurrence/5276670864"
      }
    },
    {
      "type": "Feature",
      "id": 1100713496,
      "geometry": {
        "type": "Point",
        "coordinates": [
          143.96805,
          -14.216945
        ]
      },
      "properties": {
        "scientificName": "Chironex fleckeri Southcott, 1956",
        "datasetTitle": null,
        "occurrenceID": "206f1810-e67c-4e95-9944-d3d4c718ab40",
        "basisOfRecord": "PRESERVED_SPECIMEN",
        "license": "http://creativecommons.org/licenses/by/4.0/legalcode",
        "sourceUrl": "https://www.gbif.org/occurrence/1100713496"
      }
    },
    {
      "type": "Feature",
      "id": 1066738810,
      "geometry": {
        "type": "Point",
        "coordinates": [
          145.466667,
          -16.483333
        ]
      },
      "properties": {
        "scientificName": "Chironex fleckeri Southcott, 1956",
        "datasetTitle": null,
        "occurrenceID": "8ca5f2a5-b0be-450d-9996-42ad5b78e49f",
        "basisOfRecord": "PRESERVED_SPECIMEN",
        "license": "http://creativecommons.org/licenses/by/4.0/legalcode",
        "sourceUrl": "https://www.gbif.org/occurrence/1066738810"
      }
    },
    {
      "type": "Feature",
      "id": 1100709119,
      "geometry": {
        "type": "Point",
        "coordinates": [
          148.25,
          -20.033333
        ]
      },
      "properties": {
        "scientificName": "Chironex fleckeri Southcott, 1956",
        "datasetTitle": null,
        "occurrenceID": "153cbf3d-3691-45d4-9f8c-8d0dde6cb6df",
        "basisOfRecord": "PRESERVED_SPECIMEN",
        "license": "http://creativecommons.org/licenses/by/4.0/legalcode",
        "sourceUrl": "https://www.gbif.org/occurrence/1100709119"
      }
    },
    {
      "type": "Feature",
      "id": 1100711927,
      "geometry": {
        "type": "Point",
        "coordinates": [
          140.5,
          -17.333334
        ]
      },
      "properties": {
        "scientificName": "Chironex fleckeri Southcott, 1956",
        "datasetTitle": null,
        "occurrenceID": "bccc7a5b-3adb-492c-99d9-c7fd1da70b77",
        "basisOfRecord": "PRESERVED_SPECIMEN",
        "license": "http://creativecommons.org/licenses/by/4.0/legalcode",
        "sourceUrl": "https://www.gbif.org/occurrence/1100711927"
      }
    },
    {
      "type": "Feature",
      "id": 2596557921,
      "geometry": {
        "type": "Point",
        "coordinates": [
          146.020906,
          -18.264161
        ]
      },
      "properties": {
        "scientificName": "Chironex fleckeri Southcott, 1956",
        "datasetTitle": null,
        "occurrenceID": "6e0ef713-97c1-466d-baac-945208e96250",
        "basisOfRecord": "PRESERVED_SPECIMEN",
        "license": "http://creativecommons.org/licenses/by/4.0/legalcode",
        "sourceUrl": "https://www.gbif.org/occurrence/2596557921"
      }
    },
    {
      "type": "Feature",
      "id": 2596572007,
      "geometry": {
        "type": "Point",
        "coordinates": [
          146.418708,
          -19.026878
        ]
      },
      "properties": {
        "scientificName": "Chironex fleckeri Southcott, 1956",
        "datasetTitle": null,
        "occurrenceID": "7513fad1-44b2-4160-89df-04c86c1098d8",
        "basisOfRecord": "PRESERVED_SPECIMEN",
        "license": "http://creativecommons.org/licenses/by/4.0/legalcode",
        "sourceUrl": "https://www.gbif.org/occurrence/2596572007"
      }
    },
    {
      "type": "Feature",
      "id": 3855710956,
      "geometry": {
        "type": "Point",
        "coordinates": [
          -109.314958,
          23.372101
        ]
      },
      "properties": {
        "scientificName": "Chironex fleckeri Southcott, 1956",
        "datasetTitle": null,
        "occurrenceID": "urn:catalog:CAS:IZ:223778",
        "basisOfRecord": "PRESERVED_SPECIMEN",
        "license": "http://creativecommons.org/publicdomain/zero/1.0/legalcode",
        "sourceUrl": "https://www.gbif.org/occurrence/3855710956"
      }
    }
  ]
}
