{
  "type": "FeatureCollection",
  "metadata": {
    "dggrs": "https://www.opengis.net/def/dggrs/OGC/1.0/ISEA3H",
    "projection": "ISEA",
    "topology": "HEXAGON",
    "aperture": 3,
    "resolution": 6,
    "source": "/geography/chironex-fleckeri-occurrences.geojson",
    "note": "Only ISEA3H cells containing a grid-deduplicated reusable-license GBIF observation are included."
  },
  "features": [
    {
      "type": "Feature",
      "geometry": {
        "type": "Polygon",
        "coordinates": [
          [
            [
              129.74188819301628,
              -9.90070256980147
            ],
            [
              128.7522287329619,
              -10.911179166088047
            ],
            [
              129.08159212123692,
              -12.506303386659889
            ],
            [
              130.4244940695611,
              -13.071452032615323
            ],
            [
              131.4261467396335,
              -12.05145004643119
            ],
            [
              131.07343351465803,
              -10.476276505389617
            ],
            [
              129.74188819301628,
              -9.90070256980147
            ]
          ]
        ]
      },
      "id": "5997",
      "properties": {
        "id": "5997",
        "license": "ISC",
        "sourceUrl": "https://github.com/am2222/webDggrid"
      }
    },
    {
      "type": "Feature",
      "geometry": {
        "type": "Polygon",
        "coordinates": [
          [
            [
              132.05896961211357,
              -9.46152623611008
            ],
            [
              131.07343351465803,
              -10.476276505389617
            ],
            [
              131.4261467396335,
              -12.05145004643119
            ],
            [
              132.78371897803785,
              -12.594600667208356
            ],
            [
              133.77978621002472,
              -11.569141822443273
            ],
            [
              133.40844466018095,
              -10.01144027349736
            ],
            [
              132.05896961211357,
              -9.46152623611008
            ]
          ]
        ]
      },
      "id": "6024",
      "properties": {
        "id": "6024",
        "license": "ISC",
        "sourceUrl": "https://github.com/am2222/webDggrid"
      }
    },
    {
      "type": "Feature",
      "geometry": {
        "type": "Polygon",
        "coordinates": [
          [
            [
              133.77978621002472,
              -11.569141822443273
            ],
            [
              132.78371897803785,
              -12.594600667208356
            ],
            [
              133.12996504431283,
              -14.158284460864458
            ],
            [
              134.4850298468772,
              -14.685484054573848
            ],
            [
              135.50736883279882,
              -13.643301172220509
            ],
            [
              135.14884861768152,
              -12.091798492212966
            ],
            [
              133.77978621002472,
              -11.569141822443273
            ]
          ]
        ]
      },
      "id": "6023",
      "properties": {
        "id": "6023",
        "license": "ISC",
        "sourceUrl": "https://github.com/am2222/webDggrid"
      }
    },
    {
      "type": "Feature",
      "geometry": {
        "type": "Polygon",
        "coordinates": [
          [
            [
              144.55891698281297,
              -19.587897609814235
            ],
            [
              144.95675239667094,
              -21.117414194254305
            ],
            [
              146.3953273446435,
              -21.54033334587018
            ],
            [
              147.42728080204986,
              -20.439893584376687
            ],
            [
              147.01651173632294,
              -18.928868950514467
            ],
            [
              145.58772411324335,
              -18.50027718241054
            ],
            [
              144.55891698281297,
              -19.587897609814235
            ]
          ]
        ]
      },
      "id": "5740",
      "properties": {
        "id": "5740",
        "license": "ISC",
        "sourceUrl": "https://github.com/am2222/webDggrid"
      }
    },
    {
      "type": "Feature",
      "geometry": {
        "type": "Polygon",
        "coordinates": [
          [
            [
              138.5887920684629,
              -16.199569028876233
            ],
            [
              138.94450318949976,
              -17.75136480556045
            ],
            [
              140.33446179567477,
              -18.227762591017456
            ],
            [
              141.36176007514524,
              -17.15269391392766
            ],
            [
              140.995443469608,
              -15.615491436150846
            ],
            [
              139.6126928469732,
              -15.13875624637871
            ],
            [
              138.5887920684629,
              -16.199569028876233
            ]
          ]
        ]
      },
      "id": "5797",
      "properties": {
        "id": "5797",
        "license": "ISC",
        "sourceUrl": "https://github.com/am2222/webDggrid"
      }
    },
    {
      "type": "Feature",
      "geometry": {
        "type": "Polygon",
        "coordinates": [
          [
            [
              134.4850298468772,
              -14.685484054573848
            ],
            [
              134.8213772741686,
              -16.252140536278645
            ],
            [
              136.18847390947894,
              -16.763543073781666
            ],
            [
              137.2139550292689,
              -15.706152692246107
            ],
            [
              136.86915074297775,
              -14.152713449580352
            ],
            [
              135.50736883279882,
              -13.643301172220509
            ],
            [
              134.4850298468772,
              -14.685484054573848
            ]
          ]
        ]
      },
      "id": "5826",
      "properties": {
        "id": "5826",
        "license": "ISC",
        "sourceUrl": "https://github.com/am2222/webDggrid"
      }
    },
    {
      "type": "Feature",
      "geometry": {
        "type": "Polygon",
        "coordinates": [
          [
            [
              140.87079782609348,
              -9.96730941474578
            ],
            [
              139.88802166580584,
              -11.01246745093086
            ],
            [
              140.26964416844328,
              -12.543825048815515
            ],
            [
              141.64484436727352,
              -13.020873717688055
            ],
            [
              142.6502388045966,
              -11.961786891347405
            ],
            [
              142.25775348954528,
              -10.43835838723563
            ],
            [
              140.87079782609348,
              -9.96730941474578
            ]
          ]
        ]
      },
      "id": "6104",
      "properties": {
        "id": "6104",
        "license": "ISC",
        "sourceUrl": "https://github.com/am2222/webDggrid"
      }
    },
    {
      "type": "Feature",
      "geometry": {
        "type": "Polygon",
        "coordinates": [
          [
            [
              115.77036558665512,
              -19.008928023720117
            ],
            [
              115.492183741969,
              -20.40527940635223
            ],
            [
              116.69776256355506,
              -21.657347151148237
            ],
            [
              118.29281585960352,
              -20.867235495756763
            ],
            [
              118.53677879417363,
              -19.46511660624563
            ],
            [
              117.2216929440146,
              -18.862754667010126
            ],
            [
              115.77036558665512,
              -19.008928023720117
            ]
          ]
        ]
      },
      "id": "5806",
      "properties": {
        "id": "5806",
        "license": "ISC",
        "sourceUrl": "https://github.com/am2222/webDggrid"
      }
    },
    {
      "type": "Feature",
      "geometry": {
        "type": "Polygon",
        "coordinates": [
          [
            [
              148.87934709733463,
              -20.85125752624223
            ],
            [
              149.31026241583828,
              -22.354726634830296
            ],
            [
              150.78883517273664,
              -22.748745858298687
            ],
            [
              151.8233649015966,
              -21.65136538896016
            ],
            [
              151.37218374665878,
              -20.163691790628526
            ],
            [
              149.90813443785552,
              -19.75929303919684
            ],
            [
              148.87934709733463,
              -20.85125752624223
            ]
          ]
        ]
      },
      "id": "5711",
      "properties": {
        "id": "5711",
        "license": "ISC",
        "sourceUrl": "https://github.com/am2222/webDggrid"
      }
    },
    {
      "type": "Feature",
      "geometry": {
        "type": "Polygon",
        "coordinates": [
          [
            [
              125.02955632262575,
              -16.571787396426895
            ],
            [
              125.37096673888017,
              -18.202152337129196
            ],
            [
              126.7150641184985,
              -18.79626142424383
            ],
            [
              127.70984953115564,
              -17.751229854094444
            ],
            [
              127.37644613165723,
              -16.13847040444992
            ],
            [
              126.03902009929189,
              -15.552531876493854
            ],
            [
              125.02955632262575,
              -16.571787396426895
            ]
          ]
        ]
      },
      "id": "5830",
      "properties": {
        "id": "5830",
        "license": "ISC",
        "sourceUrl": "https://github.com/am2222/webDggrid"
      }
    },
    {
      "type": "Feature",
      "geometry": {
        "type": "Polygon",
        "coordinates": [
          [
            [
              145.19380068431443,
              -16.982399885192656
            ],
            [
              145.58772411324335,
              -18.50027718241054
            ],
            [
              147.01651173632294,
              -18.928868950514467
            ],
            [
              148.0398355136068,
              -17.84441672582458
            ],
            [
              147.6283167595343,
              -16.3391867905817
            ],
            [
              146.2115176569819,
              -15.906285002547623
            ],
            [
              145.19380068431443,
              -16.982399885192656
            ]
          ]
        ]
      },
      "id": "5767",
      "properties": {
        "id": "5767",
        "license": "ISC",
        "sourceUrl": "https://github.com/am2222/webDggrid"
      }
    },
    {
      "type": "Feature",
      "geometry": {
        "type": "Polygon",
        "coordinates": [
          [
            [
              147.01651173632294,
              -18.928868950514467
            ],
            [
              147.42728080204986,
              -20.439893584376687
            ],
            [
              148.87934709733463,
              -20.85125752624223
            ],
            [
              149.90813443785552,
              -19.75929303919684
            ],
            [
              149.47859666051647,
              -18.26256672377228
            ],
            [
              148.0398355136068,
              -17.84441672582458
            ],
            [
              147.01651173632294,
              -18.928868950514467
            ]
          ]
        ]
      },
      "id": "5739",
      "properties": {
        "id": "5739",
        "license": "ISC",
        "sourceUrl": "https://github.com/am2222/webDggrid"
      }
    },
    {
      "type": "Feature",
      "geometry": {
        "type": "Polygon",
        "coordinates": [
          [
            [
              141.64484436727352,
              -13.020873717688055
            ],
            [
              142.0146559656907,
              -14.551279027420703
            ],
            [
              143.40516427981737,
              -15.01277841511144
            ],
            [
              144.4169329586407,
              -13.945224826012518
            ],
            [
              144.03170692446565,
              -12.424466282997967
            ],
            [
              142.6502388045966,
              -11.961786891347405
            ],
            [
              141.64484436727352,
              -13.020873717688055
            ]
          ]
        ]
      },
      "id": "5823",
      "properties": {
        "id": "5823",
        "license": "ISC",
        "sourceUrl": "https://github.com/am2222/webDggrid"
      }
    },
    {
      "type": "Feature",
      "geometry": {
        "type": "Polygon",
        "coordinates": [
          [
            [
              143.40516427981737,
              -15.01277841511144
            ],
            [
              143.78546588301108,
              -16.53705932489053
            ],
            [
              145.19380068431443,
              -16.982399885192656
            ],
            [
              146.2115176569819,
              -15.906285002547623
            ],
            [
              145.81471074211044,
              -14.393085162678675
            ],
            [
              144.4169329586407,
              -13.945224826012518
            ],
            [
              143.40516427981737,
              -15.01277841511144
            ]
          ]
        ]
      },
      "id": "5795",
      "properties": {
        "id": "5795",
        "license": "ISC",
        "sourceUrl": "https://github.com/am2222/webDggrid"
      }
    },
    {
      "type": "Feature",
      "geometry": {
        "type": "Polygon",
        "coordinates": [
          [
            [
              -108.10568690044155,
              22.03009635083087
            ],
            [
              -107.2476877158106,
              23.262703163420916
            ],
            [
              -108.12624637082325,
              24.375913799144495
            ],
            [
              -109.90016906418624,
              24.262913639089632
            ],
            [
              -110.71470563714874,
              23.0019490794937
            ],
            [
              -109.79997349911984,
              21.88463606412323
            ],
            [
              -108.10568690044155,
              22.03009635083087
            ]
          ]
        ]
      },
      "id": "3877",
      "properties": {
        "id": "3877",
        "license": "ISC",
        "sourceUrl": "https://github.com/am2222/webDggrid"
      }
    }
  ]
}
