{
  "type": "FeatureCollection",
  "metadata": {
    "dggrs": "https://www.opengis.net/def/dggrs/OGC/1.0/ISEA3H",
    "projection": "ISEA",
    "topology": "HEXAGON",
    "aperture": 3,
    "resolution": 6,
    "source": "/geography/conus-geographus-occurrences.geojson",
    "note": "Only ISEA3H cells containing a grid-deduplicated reusable-license GBIF observation are included."
  },
  "features": [
    {
      "type": "Feature",
      "geometry": {
        "type": "Polygon",
        "coordinates": [
          [
            [
              175.8290366826548,
              -17.230387078068173
            ],
            [
              176.652748736193,
              -18.443912809778347
            ],
            [
              178.32698139329713,
              -18.493091497767267
            ],
            [
              179.16702189284814,
              -17.32346417020578
            ],
            [
              178.33909840901157,
              -16.123450666921354
            ],
            [
              176.67454623930234,
              -16.079980872695018
            ],
            [
              175.8290366826548,
              -17.230387078068173
            ]
          ]
        ]
      },
      "id": "5646",
      "properties": {
        "id": "5646",
        "license": "ISC",
        "sourceUrl": "https://github.com/am2222/webDggrid"
      }
    },
    {
      "type": "Feature",
      "geometry": {
        "type": "Polygon",
        "coordinates": [
          [
            [
              55.29877430726313,
              -19.853765058636224
            ],
            [
              54.24153219309712,
              -20.902865101111058
            ],
            [
              54.83471398011779,
              -22.219319717964403
            ],
            [
              56.50734782388256,
              -22.495337307010825
            ],
            [
              57.55473945965272,
              -21.449407093947304
            ],
            [
              56.941962937082856,
              -20.124788045674233
            ],
            [
              55.29877430726313,
              -19.853765058636224
            ]
          ]
        ]
      },
      "id": "2497",
      "properties": {
        "id": "2497",
        "license": "ISC",
        "sourceUrl": "https://github.com/am2222/webDggrid"
      }
    },
    {
      "type": "Feature",
      "geometry": {
        "type": "Polygon",
        "coordinates": [
          [
            [
              52.29015046884435,
              17.751229854094433
            ],
            [
              52.62355386834275,
              16.138470404449908
            ],
            [
              53.9609799007081,
              15.552531876493843
            ],
            [
              54.97044367737424,
              16.571787396426885
            ],
            [
              54.62903326111982,
              18.202152337129185
            ],
            [
              53.2849358815015,
              18.79626142424382
            ],
            [
              52.29015046884435,
              17.751229854094433
            ]
          ]
        ]
      },
      "id": "2949",
      "properties": {
        "id": "2949",
        "license": "ISC",
        "sourceUrl": "https://github.com/am2222/webDggrid"
      }
    },
    {
      "type": "Feature",
      "geometry": {
        "type": "Polygon",
        "coordinates": [
          [
            [
              46.74084767437179,
              -13.312834044234531
            ],
            [
              45.68883329794286,
              -14.338055472802493
            ],
            [
              46.1850159807525,
              -15.689900146577688
            ],
            [
              47.76148718445738,
              -16.014390832107676
            ],
            [
              48.81987817734799,
              -14.984634309278276
            ],
            [
              48.29746856815597,
              -13.635851005187275
            ],
            [
              46.74084767437179,
              -13.312834044234531
            ]
          ]
        ]
      },
      "id": "2501",
      "properties": {
        "id": "2501",
        "license": "ISC",
        "sourceUrl": "https://github.com/am2222/webDggrid"
      }
    },
    {
      "type": "Feature",
      "geometry": {
        "type": "Polygon",
        "coordinates": [
          [
            [
              55.856375682820385,
              20.618913937615975
            ],
            [
              55.60574492136242,
              19.244997436695034
            ],
            [
              56.94749707789216,
              18.627946031809646
            ],
            [
              58.55001773637398,
              19.361338160670766
            ],
            [
              58.79405373521438,
              20.73706557024244
            ],
            [
              57.440706483239026,
              21.37820145718641
            ],
            [
              55.856375682820385,
              20.618913937615975
            ]
          ]
        ]
      },
      "id": "2975",
      "properties": {
        "id": "2975",
        "license": "ISC",
        "sourceUrl": "https://github.com/am2222/webDggrid"
      }
    },
    {
      "type": "Feature",
      "geometry": {
        "type": "Polygon",
        "coordinates": [
          [
            [
              127.28764228088995,
              27.948172211340292
            ],
            [
              126.14582550696521,
              26.92267869288342
            ],
            [
              126.7560693190604,
              25.612578138007272
            ],
            [
              128.47596911681845,
              25.32331669739422
            ],
            [
              129.62833020057616,
              26.333946072578307
            ],
            [
              129.05132291892906,
              27.647907129458446
            ],
            [
              127.28764228088995,
              27.948172211340292
            ]
          ]
        ]
      },
      "id": "6365",
      "properties": {
        "id": "6365",
        "license": "ISC",
        "sourceUrl": "https://github.com/am2222/webDggrid"
      }
    },
    {
      "type": "Feature",
      "geometry": {
        "type": "Polygon",
        "coordinates": [
          [
            [
              136.14006235917574,
              -11.06027954863902
            ],
            [
              135.14884861768152,
              -12.091798492212966
            ],
            [
              135.50736883279882,
              -13.643301172220509
            ],
            [
              136.86915074297775,
              -14.152713449580352
            ],
            [
              137.8879821341386,
              -13.104761761823278
            ],
            [
              137.51767529149691,
              -11.564040400228645
            ],
            [
              136.14006235917574,
              -11.06027954863902
            ]
          ]
        ]
      },
      "id": "6050",
      "properties": {
        "id": "6050",
        "license": "ISC",
        "sourceUrl": "https://github.com/am2222/webDggrid"
      }
    },
    {
      "type": "Feature",
      "geometry": {
        "type": "Polygon",
        "coordinates": [
          [
            [
              37.4940992787693,
              21.788528678073455
            ],
            [
              37.887237326116015,
              20.23693362054593
            ],
            [
              39.294170881141085,
              19.778778787636522
            ],
            [
              40.3151503122539,
              20.873593513802387
            ],
            [
              39.91629692673947,
              22.45035053158427
            ],
            [
              38.502097676911326,
              22.90757414642251
            ],
            [
              37.4940992787693,
              21.788528678073455
            ]
          ]
        ]
      },
      "id": "3037",
      "properties": {
        "id": "3037",
        "license": "ISC",
        "sourceUrl": "https://github.com/am2222/webDggrid"
      }
    },
    {
      "type": "Feature",
      "geometry": {
        "type": "Polygon",
        "coordinates": [
          [
            [
              -178.30987449728175,
              -20.87634324045798
            ],
            [
              -176.62061766668756,
              -20.824655025702686
            ],
            [
              -175.7970421490452,
              -19.599946944123523
            ],
            [
              -176.652748736171,
              -18.44391281172347
            ],
            [
              -178.32698139328423,
              -18.49309149987422
            ],
            [
              -179.15948612775716,
              -19.70127570747504
            ],
            [
              -178.30987449728175,
              -20.87634324045798
            ]
          ]
        ]
      },
      "id": "5086",
      "properties": {
        "id": "5086",
        "license": "ISC",
        "sourceUrl": "https://github.com/am2222/webDggrid"
      }
    },
    {
      "type": "Feature",
      "geometry": {
        "type": "Polygon",
        "coordinates": [
          [
            [
              149.62485809970767,
              -0.43682540770190936
            ],
            [
              148.6574370508055,
              -1.5161559273006495
            ],
            [
              149.065517697305,
              -3.013477452698911
            ],
            [
              150.4406239373785,
              -3.4347252178539422
            ],
            [
              151.4026862081256,
              -2.350260877563551
            ],
            [
              150.99471356221935,
              -0.8488872468760256
            ],
            [
              149.62485809970767,
              -0.43682540770190936
            ]
          ]
        ]
      },
      "id": "6269",
      "properties": {
        "id": "6269",
        "license": "ISC",
        "sourceUrl": "https://github.com/am2222/webDggrid"
      }
    },
    {
      "type": "Feature",
      "geometry": {
        "type": "Polygon",
        "coordinates": [
          [
            [
              44.68547320887424,
              -11.618720734025713
            ],
            [
              43.6458508150108,
              -12.639977453369582
            ],
            [
              44.13248914366045,
              -14.000784482952541
            ],
            [
              45.68883329794286,
              -14.338055472802493
            ],
            [
              46.74084767437179,
              -13.312834044234531
            ],
            [
              46.227165717960425,
              -11.955134765027202
            ],
            [
              44.68547320887424,
              -11.618720734025713
            ]
          ]
        ]
      },
      "id": "2502",
      "properties": {
        "id": "2502",
        "license": "ISC",
        "sourceUrl": "https://github.com/am2222/webDggrid"
      }
    },
    {
      "type": "Feature",
      "geometry": {
        "type": "Polygon",
        "coordinates": [
          [
            [
              144.36398771912866,
              -4.266784504200936
            ],
            [
              143.39130853167373,
              -5.315800085770034
            ],
            [
              143.80143854119677,
              -6.822501284026031
            ],
            [
              145.18606768119886,
              -7.274855095386967
            ],
            [
              146.1579867213924,
              -6.2154876460561495
            ],
            [
              145.74654502404778,
              -4.713441851677001
            ],
            [
              144.36398771912866,
              -4.266784504200936
            ]
          ]
        ]
      },
      "id": "6187",
      "properties": {
        "id": "6187",
        "license": "ISC",
        "sourceUrl": "https://github.com/am2222/webDggrid"
      }
    },
    {
      "type": "Feature",
      "geometry": {
        "type": "Polygon",
        "coordinates": [
          [
            [
              157.2937343908574,
              -5.507491041776194
            ],
            [
              156.35173883431523,
              -6.6064515110661475
            ],
            [
              156.8010166709611,
              -8.113279777857509
            ],
            [
              158.2005901572606,
              -8.522376352450395
            ],
            [
              159.1206100313856,
              -7.428737362603825
            ],
            [
              158.66307304063903,
              -5.919395013008201
            ],
            [
              157.2937343908574,
              -5.507491041776194
            ]
          ]
        ]
      },
      "id": "6293",
      "properties": {
        "id": "6293",
        "license": "ISC",
        "sourceUrl": "https://github.com/am2222/webDggrid"
      }
    },
    {
      "type": "Feature",
      "geometry": {
        "type": "Polygon",
        "coordinates": [
          [
            [
              46.39505770606078,
              -24.34656693439966
            ],
            [
              45.17934488206369,
              -25.294050470029745
            ],
            [
              45.68160748326363,
              -26.610158804853903
            ],
            [
              47.43529351842398,
              -26.982247635968672
            ],
            [
              48.63851927384412,
              -26.010805187899724
            ],
            [
              48.1011866976519,
              -24.69214659656861
            ],
            [
              46.39505770606078,
              -24.34656693439966
            ]
          ]
        ]
      },
      "id": "2388",
      "properties": {
        "id": "2388",
        "license": "ISC",
        "sourceUrl": "https://github.com/am2222/webDggrid"
      }
    },
    {
      "type": "Feature",
      "geometry": {
        "type": "Polygon",
        "coordinates": [
          [
            [
              149.065517697305,
              -3.013477452698911
            ],
            [
              148.09768843212765,
              -4.085661620217372
            ],
            [
              148.50953482882116,
              -5.586086692672352
            ],
            [
              149.88970235567928,
              -6.014895361257253
            ],
            [
              150.85292245730403,
              -4.936326403205953
            ],
            [
              150.4406239373785,
              -3.4347252178539422
            ],
            [
              149.065517697305,
              -3.013477452698911
            ]
          ]
        ]
      },
      "id": "6241",
      "properties": {
        "id": "6241",
        "license": "ISC",
        "sourceUrl": "https://github.com/am2222/webDggrid"
      }
    },
    {
      "type": "Feature",
      "geometry": {
        "type": "Polygon",
        "coordinates": [
          [
            [
              113.32717270306108,
              -7.114188992629989
            ],
            [
              112.53985067750567,
              -8.60836574157549
            ],
            [
              113.1524812311075,
              -9.878028118501536
            ],
            [
              114.54787391531994,
              -9.64989750096879
            ],
            [
              115.60276968404757,
              -8.723213741434373
            ],
            [
              114.9915095300098,
              -7.453791373616368
            ],
            [
              113.32717270306108,
              -7.114188992629989
            ]
          ]
        ]
      },
      "id": "5892",
      "properties": {
        "id": "5892",
        "license": "ISC",
        "sourceUrl": "https://github.com/am2222/webDggrid"
      }
    },
    {
      "type": "Feature",
      "geometry": {
        "type": "Polygon",
        "coordinates": [
          [
            [
              43.447597083327565,
              -24.88912321966188
            ],
            [
              42.1646562985621,
              -25.74972089071906
            ],
            [
              42.63204780446185,
              -27.061979935023277
            ],
            [
              44.417062609116115,
              -27.51707404569672
            ],
            [
              45.68160748326363,
              -26.610158804853903
            ],
            [
              45.17934488206369,
              -25.294050470029745
            ],
            [
              43.447597083327565,
              -24.88912321966188
            ]
          ]
        ]
      },
      "id": "2361",
      "properties": {
        "id": "2361",
        "license": "ISC",
        "sourceUrl": "https://github.com/am2222/webDggrid"
      }
    },
    {
      "type": "Feature",
      "geometry": {
        "type": "Polygon",
        "coordinates": [
          [
            [
              125.88886441787719,
              -8.013670221115287
            ],
            [
              124.90525636506575,
              -9.017583683887565
            ],
            [
              125.16525058893056,
              -10.683474942897899
            ],
            [
              126.44774862986873,
              -11.315500302673556
            ],
            [
              127.44293833121876,
              -10.30817922578172
            ],
            [
              127.14338378937524,
              -8.67389355938092
            ],
            [
              125.88886441787719,
              -8.013670221115287
            ]
          ]
        ]
      },
      "id": "5971",
      "properties": {
        "id": "5971",
        "license": "ISC",
        "sourceUrl": "https://github.com/am2222/webDggrid"
      }
    },
    {
      "type": "Feature",
      "geometry": {
        "type": "Polygon",
        "coordinates": [
          [
            [
              112.20295765628069,
              -22.115560362435556
            ],
            [
              111.87343731948519,
              -23.49628190526953
            ],
            [
              113.08638366667309,
              -24.711569028056388
            ],
            [
              114.62737420430463,
              -24.56195076511555
            ],
            [
              114.92119490737224,
              -23.181562092104976
            ],
            [
              113.71047946827572,
              -21.95097384126234
            ],
            [
              112.20295765628069,
              -22.115560362435556
            ]
          ]
        ]
      },
      "id": "5752",
      "properties": {
        "id": "5752",
        "license": "ISC",
        "sourceUrl": "https://github.com/am2222/webDggrid"
      }
    },
    {
      "type": "Feature",
      "geometry": {
        "type": "Polygon",
        "coordinates": [
          [
            [
              165.4745031310653,
              -21.26113498336371
            ],
            [
              166.30609167761656,
              -22.494351619529624
            ],
            [
              168.03329202006728,
              -22.654408332120465
            ],
            [
              168.94442587237407,
              -21.547176623511483
            ],
            [
              168.12474098185425,
              -20.308123528424133
            ],
            [
              166.3827596893851,
              -20.18247383161896
            ],
            [
              165.4745031310653,
              -21.26113498336371
            ]
          ]
        ]
      },
      "id": "5650",
      "properties": {
        "id": "5650",
        "license": "ISC",
        "sourceUrl": "https://github.com/am2222/webDggrid"
      }
    },
    {
      "type": "Feature",
      "geometry": {
        "type": "Polygon",
        "coordinates": [
          [
            [
              166.27203752798346,
              -13.666299692010385
            ],
            [
              166.78720311424772,
              -15.239413898882642
            ],
            [
              168.16121063485076,
              -15.768444673688663
            ],
            [
              169.03101904146584,
              -14.675845695769066
            ],
            [
              168.53567721343563,
              -13.059545042819336
            ],
            [
              167.15193194255008,
              -12.576455807655963
            ],
            [
              166.27203752798346,
              -13.666299692010385
            ]
          ]
        ]
      },
      "id": "5731",
      "properties": {
        "id": "5731",
        "license": "ISC",
        "sourceUrl": "https://github.com/am2222/webDggrid"
      }
    },
    {
      "type": "Feature",
      "geometry": {
        "type": "Polygon",
        "coordinates": [
          [
            [
              124.42947850422348,
              -13.330890375609723
            ],
            [
              123.40448550768257,
              -14.338664932431763
            ],
            [
              123.69649922573565,
              -15.964701917713592
            ],
            [
              125.02955632262575,
              -16.571787396426895
            ],
            [
              126.03902009929189,
              -15.552531876493854
            ],
            [
              125.73265760512797,
              -13.94409005906077
            ],
            [
              124.42947850422348,
              -13.330890375609723
            ]
          ]
        ]
      },
      "id": "5915",
      "properties": {
        "id": "5915",
        "license": "ISC",
        "sourceUrl": "https://github.com/am2222/webDggrid"
      }
    },
    {
      "type": "Feature",
      "geometry": {
        "type": "Polygon",
        "coordinates": [
          [
            [
              152.20359585096534,
              -27.24955465135558
            ],
            [
              152.787240093795,
              -28.79436656700099
            ],
            [
              154.2984527356202,
              -29.112952206594215
            ],
            [
              155.29258050256985,
              -27.94520979473162
            ],
            [
              154.7806147726063,
              -26.473757221044742
            ],
            [
              153.23352477793176,
              -26.10544592413076
            ],
            [
              152.20359585096534,
              -27.24955465135558
            ]
          ]
        ]
      },
      "id": "5628",
      "properties": {
        "id": "5628",
        "license": "ISC",
        "sourceUrl": "https://github.com/am2222/webDggrid"
      }
    },
    {
      "type": "Feature",
      "geometry": {
        "type": "Polygon",
        "coordinates": [
          [
            [
              130.38363911060475,
              -7.289136244946787
            ],
            [
              129.4100018508033,
              -8.29489935143071
            ],
            [
              129.74188819301628,
              -9.90070256980147
            ],
            [
              131.07343351465803,
              -10.476276505389617
            ],
            [
              132.05896961211357,
              -9.46152623611008
            ],
            [
              131.70144604910888,
              -7.880907170880367
            ],
            [
              130.38363911060475,
              -7.289136244946787
            ]
          ]
        ]
      },
      "id": "6025",
      "properties": {
        "id": "6025",
        "license": "ISC",
        "sourceUrl": "https://github.com/am2222/webDggrid"
      }
    },
    {
      "type": "Feature",
      "geometry": {
        "type": "Polygon",
        "coordinates": [
          [
            [
              114.01288298457916,
              -20.562920223494928
            ],
            [
              113.71047946827572,
              -21.95097384126234
            ],
            [
              114.92119490737224,
              -23.181562092104976
            ],
            [
              116.42972000940914,
              -23.046582987680235
            ],
            [
              116.69776256355506,
              -21.657347151148237
            ],
            [
              115.492183741969,
              -20.40527940635223
            ],
            [
              114.01288298457916,
              -20.562920223494928
            ]
          ]
        ]
      },
      "id": "5779",
      "properties": {
        "id": "5779",
        "license": "ISC",
        "sourceUrl": "https://github.com/am2222/webDggrid"
      }
    },
    {
      "type": "Feature",
      "geometry": {
        "type": "Polygon",
        "coordinates": [
          [
            [
              113.08638366667309,
              -24.711569028056388
            ],
            [
              112.76350431060784,
              -26.08457803424131
            ],
            [
              114.02031856041081,
              -27.308305116871534
            ],
            [
              115.59556671793247,
              -27.18471630297363
            ],
            [
              115.8791316409355,
              -25.810056890571587
            ],
            [
              114.62737420430463,
              -24.56195076511555
            ],
            [
              113.08638366667309,
              -24.711569028056388
            ]
          ]
        ]
      },
      "id": "5724",
      "properties": {
        "id": "5724",
        "license": "ISC",
        "sourceUrl": "https://github.com/am2222/webDggrid"
      }
    },
    {
      "type": "Feature",
      "geometry": {
        "type": "Polygon",
        "coordinates": [
          [
            [
              123.97009981010767,
              11.40471113155749
            ],
            [
              122.97860848519561,
              10.35552954185623
            ],
            [
              123.55659081924578,
              9.029551928166635
            ],
            [
              125.11528361953607,
              8.743479303216619
            ],
            [
              126.10302691850576,
              9.786050703792924
            ],
            [
              125.53690229196971,
              11.121344593682416
            ],
            [
              123.97009981010767,
              11.40471113155749
            ]
          ]
        ]
      },
      "id": "6169",
      "properties": {
        "id": "6169",
        "license": "ISC",
        "sourceUrl": "https://github.com/am2222/webDggrid"
      }
    },
    {
      "type": "Feature",
      "geometry": {
        "type": "Polygon",
        "coordinates": [
          [
            [
              124.3983592803193,
              27.211405762480634
            ],
            [
              123.30279576252634,
              26.18288258919757
            ],
            [
              123.93885802152079,
              24.85832404075017
            ],
            [
              125.64614334516476,
              24.576424712710192
            ],
            [
              126.7560693190604,
              25.612578138007272
            ],
            [
              126.14582550696521,
              26.92267869288342
            ],
            [
              124.3983592803193,
              27.211405762480634
            ]
          ]
        ]
      },
      "id": "6338",
      "properties": {
        "id": "6338",
        "license": "ISC",
        "sourceUrl": "https://github.com/am2222/webDggrid"
      }
    },
    {
      "type": "Feature",
      "geometry": {
        "type": "Polygon",
        "coordinates": [
          [
            [
              32.795428864601924,
              -25.949794730300837
            ],
            [
              31.5554611339669,
              -27.067727212573462
            ],
            [
              31.915703685105946,
              -28.44356425408306
            ],
            [
              33.54865566463032,
              -28.68167424695317
            ],
            [
              34.79135996171257,
              -27.529529179135626
            ],
            [
              34.39981730684276,
              -26.17468623223642
            ],
            [
              32.795428864601924,
              -25.949794730300837
            ]
          ]
        ]
      },
      "id": "2281",
      "properties": {
        "id": "2281",
        "license": "ISC",
        "sourceUrl": "https://github.com/am2222/webDggrid"
      }
    },
    {
      "type": "Feature",
      "geometry": {
        "type": "Polygon",
        "coordinates": [
          [
            [
              -147.73546835862922,
              -26.154199995446266
            ],
            [
              -146.27226832171885,
              -25.761216784461354
            ],
            [
              -145.79985742036544,
              -24.198370571976632
            ],
            [
              -146.81560036433618,
              -23.066576648108274
            ],
            [
              -148.27659061084137,
              -23.468756969016244
            ],
            [
              -148.7255335234876,
              -24.99283172208283
            ],
            [
              -147.73546835862922,
              -26.154199995446266
            ]
          ]
        ]
      },
      "id": "4760",
      "properties": {
        "id": "4760",
        "license": "ISC",
        "sourceUrl": "https://github.com/am2222/webDggrid"
      }
    },
    {
      "type": "Feature",
      "geometry": {
        "type": "Polygon",
        "coordinates": [
          [
            [
              147.01651173632294,
              -18.928868950514467
            ],
            [
              147.42728080204986,
              -20.439893584376687
            ],
            [
              148.87934709733463,
              -20.85125752624223
            ],
            [
              149.90813443785552,
              -19.75929303919684
            ],
            [
              149.47859666051647,
              -18.26256672377228
            ],
            [
              148.0398355136068,
              -17.84441672582458
            ],
            [
              147.01651173632294,
              -18.928868950514467
            ]
          ]
        ]
      },
      "id": "5739",
      "properties": {
        "id": "5739",
        "license": "ISC",
        "sourceUrl": "https://github.com/am2222/webDggrid"
      }
    },
    {
      "type": "Feature",
      "geometry": {
        "type": "Polygon",
        "coordinates": [
          [
            [
              178.33909840901157,
              -16.123450666921354
            ],
            [
              179.16702189284814,
              -17.32346417020578
            ],
            [
              -179.1670218928423,
              -17.323464172398356
            ],
            [
              -178.33909840900287,
              -16.123450669038792
            ],
            [
              -179.17216743673384,
              -14.958948973599638
            ],
            [
              179.17216743673757,
              -14.95894897139587
            ],
            [
              178.33909840901157,
              -16.123450666921354
            ]
          ]
        ]
      },
      "id": "5645",
      "properties": {
        "id": "5645",
        "license": "ISC",
        "sourceUrl": "https://github.com/am2222/webDggrid"
      }
    },
    {
      "type": "Feature",
      "geometry": {
        "type": "Polygon",
        "coordinates": [
          [
            [
              39.07588882533146,
              -3.740924980497981
            ],
            [
              38.10855331382425,
              -4.74944458000948
            ],
            [
              38.51747499115911,
              -6.2836833201437345
            ],
            [
              39.837639916892215,
              -6.908368623307796
            ],
            [
              40.786754785191626,
              -5.925934223678999
            ],
            [
              40.433932635798556,
              -4.298685609945428
            ],
            [
              39.07588882533146,
              -3.740924980497981
            ]
          ]
        ]
      },
      "id": "2533",
      "properties": {
        "id": "2533",
        "license": "ISC",
        "sourceUrl": "https://github.com/am2222/webDggrid"
      }
    },
    {
      "type": "Feature",
      "geometry": {
        "type": "Polygon",
        "coordinates": [
          [
            [
              115.77036558665512,
              -19.008928023720117
            ],
            [
              115.492183741969,
              -20.40527940635223
            ],
            [
              116.69776256355506,
              -21.657347151148237
            ],
            [
              118.29281585960352,
              -20.867235495756763
            ],
            [
              118.53677879417363,
              -19.46511660624563
            ],
            [
              117.2216929440146,
              -18.862754667010126
            ],
            [
              115.77036558665512,
              -19.008928023720117
            ]
          ]
        ]
      },
      "id": "5806",
      "properties": {
        "id": "5806",
        "license": "ISC",
        "sourceUrl": "https://github.com/am2222/webDggrid"
      }
    },
    {
      "type": "Feature",
      "geometry": {
        "type": "Polygon",
        "coordinates": [
          [
            [
              122.91183166072278,
              -11.026328468444492
            ],
            [
              121.90023479372196,
              -12.030819993971889
            ],
            [
              122.12671227426105,
              -13.699675568817584
            ],
            [
              123.40448550768257,
              -14.338664932431763
            ],
            [
              124.42947850422348,
              -13.330890375609723
            ],
            [
              124.16283576914012,
              -11.688795359036513
            ],
            [
              122.91183166072278,
              -11.026328468444492
            ]
          ]
        ]
      },
      "id": "5916",
      "properties": {
        "id": "5916",
        "license": "ISC",
        "sourceUrl": "https://github.com/am2222/webDggrid"
      }
    },
    {
      "type": "Feature",
      "geometry": {
        "type": "Polygon",
        "coordinates": [
          [
            [
              147.6283167595343,
              -16.3391867905817
            ],
            [
              148.0398355136068,
              -17.84441672582458
            ],
            [
              149.47859666051647,
              -18.26256672377228
            ],
            [
              150.49132766279462,
              -17.180900055029124
            ],
            [
              150.05989218685536,
              -15.685238266178931
            ],
            [
              148.63582822971782,
              -15.262404266583761
            ],
            [
              147.6283167595343,
              -16.3391867905817
            ]
          ]
        ]
      },
      "id": "5766",
      "properties": {
        "id": "5766",
        "license": "ISC",
        "sourceUrl": "https://github.com/am2222/webDggrid"
      }
    },
    {
      "type": "Feature",
      "geometry": {
        "type": "Polygon",
        "coordinates": [
          [
            [
              151.37218374665878,
              -20.163691790628526
            ],
            [
              151.8233649015966,
              -21.65136538896016
            ],
            [
              153.31664886152345,
              -22.04505045420806
            ],
            [
              154.33842485473855,
              -20.962309235020683
            ],
            [
              153.86250762178952,
              -19.48197832447341
            ],
            [
              152.38977735776098,
              -19.079306613720142
            ],
            [
              151.37218374665878,
              -20.163691790628526
            ]
          ]
        ]
      },
      "id": "5710",
      "properties": {
        "id": "5710",
        "license": "ISC",
        "sourceUrl": "https://github.com/am2222/webDggrid"
      }
    },
    {
      "type": "Feature",
      "geometry": {
        "type": "Polygon",
        "coordinates": [
          [
            [
              178.32698139329713,
              -18.493091497767267
            ],
            [
              179.1594861277652,
              -19.70127570529228
            ],
            [
              -179.15948612775716,
              -19.70127570747504
            ],
            [
              -178.32698139328423,
              -18.49309149987422
            ],
            [
              -179.1670218928423,
              -17.323464172398356
            ],
            [
              179.16702189284814,
              -17.32346417020578
            ],
            [
              178.32698139329713,
              -18.493091497767267
            ]
          ]
        ]
      },
      "id": "5618",
      "properties": {
        "id": "5618",
        "license": "ISC",
        "sourceUrl": "https://github.com/am2222/webDggrid"
      }
    },
    {
      "type": "Feature",
      "geometry": {
        "type": "Polygon",
        "coordinates": [
          [
            [
              38.63823992485474,
              17.152693913927653
            ],
            [
              39.004556530392,
              15.615491436150839
            ],
            [
              40.38730715302678,
              15.138756246378701
            ],
            [
              41.41120793153709,
              16.199569028876226
            ],
            [
              41.05549681050023,
              17.75136480556044
            ],
            [
              39.665538204325216,
              18.22776259101745
            ],
            [
              38.63823992485474,
              17.152693913927653
            ]
          ]
        ]
      },
      "id": "2982",
      "properties": {
        "id": "2982",
        "license": "ISC",
        "sourceUrl": "https://github.com/am2222/webDggrid"
      }
    },
    {
      "type": "Feature",
      "geometry": {
        "type": "Polygon",
        "coordinates": [
          [
            [
              175.7970421490754,
              -19.59994694226443
            ],
            [
              176.62061766671795,
              -20.824655023766706
            ],
            [
              178.30987449729903,
              -20.876343238360096
            ],
            [
              179.1594861277652,
              -19.70127570529228
            ],
            [
              178.32698139329713,
              -18.493091497767267
            ],
            [
              176.652748736193,
              -18.443912809778347
            ],
            [
              175.7970421490754,
              -19.59994694226443
            ]
          ]
        ]
      },
      "id": "5619",
      "properties": {
        "id": "5619",
        "license": "ISC",
        "sourceUrl": "https://github.com/am2222/webDggrid"
      }
    },
    {
      "type": "Feature",
      "geometry": {
        "type": "Polygon",
        "coordinates": [
          [
            [
              158.2005901572606,
              -8.522376352450395
            ],
            [
              158.68177480786798,
              -10.02091279783533
            ],
            [
              160.0949212483013,
              -10.429473393084901
            ],
            [
              161.01045167606074,
              -9.33798771037088
            ],
            [
              160.518101670113,
              -7.835411489217553
            ],
            [
              159.1206100313856,
              -7.428737362603825
            ],
            [
              158.2005901572606,
              -8.522376352450395
            ]
          ]
        ]
      },
      "id": "5816",
      "properties": {
        "id": "5816",
        "license": "ISC",
        "sourceUrl": "https://github.com/am2222/webDggrid"
      }
    },
    {
      "type": "Feature",
      "geometry": {
        "type": "Polygon",
        "coordinates": [
          [
            [
              163.18447091764074,
              -19.533345604816684
            ],
            [
              163.67879608529168,
              -21.146143990752854
            ],
            [
              165.4745031310653,
              -21.26113498336371
            ],
            [
              166.3827596893851,
              -20.18247383161896
            ],
            [
              165.50190912189,
              -19.012625264138247
            ],
            [
              164.10071361160675,
              -18.468146571245857
            ],
            [
              163.18447091764074,
              -19.533345604816684
            ]
          ]
        ]
      },
      "id": "5678",
      "properties": {
        "id": "5678",
        "license": "ISC",
        "sourceUrl": "https://github.com/am2222/webDggrid"
      }
    },
    {
      "type": "Feature",
      "geometry": {
        "type": "Polygon",
        "coordinates": [
          [
            [
              122.12671227426105,
              -13.699675568817584
            ],
            [
              121.09106654797117,
              -14.704867496486699
            ],
            [
              121.36819371436975,
              -16.34980642023525
            ],
            [
              122.69795157862877,
              -16.97874038168929
            ],
            [
              123.69649922573565,
              -15.964701917713592
            ],
            [
              123.40448550768257,
              -14.338664932431763
            ],
            [
              122.12671227426105,
              -13.699675568817584
            ]
          ]
        ]
      },
      "id": "5888",
      "properties": {
        "id": "5888",
        "license": "ISC",
        "sourceUrl": "https://github.com/am2222/webDggrid"
      }
    },
    {
      "type": "Feature",
      "geometry": {
        "type": "Polygon",
        "coordinates": [
          [
            [
              122.69795157862877,
              -16.97874038168929
            ],
            [
              123.05250292210783,
              -18.627946031809657
            ],
            [
              124.39425507863757,
              -19.244997436695048
            ],
            [
              125.37096673888017,
              -18.202152337129196
            ],
            [
              125.02955632262575,
              -16.571787396426895
            ],
            [
              123.69649922573565,
              -15.964701917713592
            ],
            [
              122.69795157862877,
              -16.97874038168929
            ]
          ]
        ]
      },
      "id": "5831",
      "properties": {
        "id": "5831",
        "license": "ISC",
        "sourceUrl": "https://github.com/am2222/webDggrid"
      }
    },
    {
      "type": "Feature",
      "geometry": {
        "type": "Polygon",
        "coordinates": [
          [
            [
              150.78883517273664,
              -22.748745858298687
            ],
            [
              151.24321012212778,
              -24.24352863116021
            ],
            [
              152.75247814744796,
              -24.62130188979918
            ],
            [
              153.79378914773824,
              -23.5237996820348
            ],
            [
              153.31664886152345,
              -22.04505045420806
            ],
            [
              151.8233649015966,
              -21.65136538896016
            ],
            [
              150.78883517273664,
              -22.748745858298687
            ]
          ]
        ]
      },
      "id": "5683",
      "properties": {
        "id": "5683",
        "license": "ISC",
        "sourceUrl": "https://github.com/am2222/webDggrid"
      }
    },
    {
      "type": "Feature",
      "geometry": {
        "type": "Polygon",
        "coordinates": [
          [
            [
              31.69195916297877,
              27.738793901415974
            ],
            [
              32.26453164200056,
              26.154199995652174
            ],
            [
              33.72773167900136,
              25.76121678469272
            ],
            [
              34.63232134015474,
              26.9546200388328
            ],
            [
              34.6432699481262,
              28.39720781292698
            ],
            [
              33.14828587672505,
              28.800109589211512
            ],
            [
              31.69195916297877,
              27.738793901415974
            ]
          ]
        ]
      },
      "id": "3121",
      "properties": {
        "id": "3121",
        "license": "ISC",
        "sourceUrl": "https://github.com/am2222/webDggrid"
      }
    },
    {
      "type": "Feature",
      "geometry": {
        "type": "Polygon",
        "coordinates": [
          [
            [
              145.19380068431443,
              -16.982399885192656
            ],
            [
              145.58772411324335,
              -18.50027718241054
            ],
            [
              147.01651173632294,
              -18.928868950514467
            ],
            [
              148.0398355136068,
              -17.84441672582458
            ],
            [
              147.6283167595343,
              -16.3391867905817
            ],
            [
              146.2115176569819,
              -15.906285002547623
            ],
            [
              145.19380068431443,
              -16.982399885192656
            ]
          ]
        ]
      },
      "id": "5767",
      "properties": {
        "id": "5767",
        "license": "ISC",
        "sourceUrl": "https://github.com/am2222/webDggrid"
      }
    },
    {
      "type": "Feature",
      "geometry": {
        "type": "Polygon",
        "coordinates": [
          [
            [
              126.74856365851457,
              -12.932970172925595
            ],
            [
              125.73265760512797,
              -13.94409005906077
            ],
            [
              126.03902009929189,
              -15.552531876493854
            ],
            [
              127.37644613165723,
              -16.13847040444992
            ],
            [
              128.3935767706872,
              -15.113682340942592
            ],
            [
              128.07339818094135,
              -13.52151029619656
            ],
            [
              126.74856365851457,
              -12.932970172925595
            ]
          ]
        ]
      },
      "id": "5942",
      "properties": {
        "id": "5942",
        "license": "ISC",
        "sourceUrl": "https://github.com/am2222/webDggrid"
      }
    },
    {
      "type": "Feature",
      "geometry": {
        "type": "Polygon",
        "coordinates": [
          [
            [
              132.30498783551153,
              35.39287638778004
            ],
            [
              130.97291796511524,
              34.48328825814594
            ],
            [
              131.57734650130337,
              33.17316411703165
            ],
            [
              133.47025265988145,
              32.76798822655018
            ],
            [
              134.82147769976052,
              33.6294237298543
            ],
            [
              134.26127870214896,
              34.94466812884573
            ],
            [
              132.30498783551153,
              35.39287638778004
            ]
          ]
        ]
      },
      "id": "6476",
      "properties": {
        "id": "6476",
        "license": "ISC",
        "sourceUrl": "https://github.com/am2222/webDggrid"
      }
    },
    {
      "type": "Feature",
      "geometry": {
        "type": "Polygon",
        "coordinates": [
          [
            [
              147.9568708380758,
              -8.160190984063112
            ],
            [
              146.98711934067984,
              -9.228271223393538
            ],
            [
              147.40005003857306,
              -10.740209989496819
            ],
            [
              148.79209400749238,
              -11.178341405786089
            ],
            [
              149.76535074390713,
              -10.10384509017265
            ],
            [
              149.34279648035945,
              -8.5954371070806
            ],
            [
              147.9568708380758,
              -8.160190984063112
            ]
          ]
        ]
      },
      "id": "6185",
      "properties": {
        "id": "6185",
        "license": "ISC",
        "sourceUrl": "https://github.com/am2222/webDggrid"
      }
    },
    {
      "type": "Feature",
      "geometry": {
        "type": "Polygon",
        "coordinates": [
          [
            [
              144.37421063357115,
              14.643171677257843
            ],
            [
              143.2518391478776,
              13.432254391057029
            ],
            [
              143.62778328454547,
              12.122444132581442
            ],
            [
              145.1026397667626,
              11.90913436635109
            ],
            [
              146.21440346245453,
              13.00182945436828
            ],
            [
              145.86952926774413,
              14.397293619747987
            ],
            [
              144.37421063357115,
              14.643171677257843
            ]
          ]
        ]
      },
      "id": "6357",
      "properties": {
        "id": "6357",
        "license": "ISC",
        "sourceUrl": "https://github.com/am2222/webDggrid"
      }
    },
    {
      "type": "Feature",
      "geometry": {
        "type": "Polygon",
        "coordinates": [
          [
            [
              53.157307183695785,
              -4.742638257164327
            ],
            [
              52.18676099090784,
              -5.772455351338493
            ],
            [
              52.76173989092807,
              -7.11015827697841
            ],
            [
              54.31287792303788,
              -7.409766440876419
            ],
            [
              55.29078307824619,
              -6.371448703658384
            ],
            [
              54.711225985986104,
              -5.041631952367318
            ],
            [
              53.157307183695785,
              -4.742638257164327
            ]
          ]
        ]
      },
      "id": "2639",
      "properties": {
        "id": "2639",
        "license": "ISC",
        "sourceUrl": "https://github.com/am2222/webDggrid"
      }
    },
    {
      "type": "Feature",
      "geometry": {
        "type": "Polygon",
        "coordinates": [
          [
            [
              148.87934709733463,
              -20.85125752624223
            ],
            [
              149.31026241583828,
              -22.354726634830296
            ],
            [
              150.78883517273664,
              -22.748745858298687
            ],
            [
              151.8233649015966,
              -21.65136538896016
            ],
            [
              151.37218374665878,
              -20.163691790628526
            ],
            [
              149.90813443785552,
              -19.75929303919684
            ],
            [
              148.87934709733463,
              -20.85125752624223
            ]
          ]
        ]
      },
      "id": "5711",
      "properties": {
        "id": "5711",
        "license": "ISC",
        "sourceUrl": "https://github.com/am2222/webDggrid"
      }
    },
    {
      "type": "Feature",
      "geometry": {
        "type": "Polygon",
        "coordinates": [
          [
            [
              143.40516427981737,
              -15.01277841511144
            ],
            [
              143.78546588301108,
              -16.53705932489053
            ],
            [
              145.19380068431443,
              -16.982399885192656
            ],
            [
              146.2115176569819,
              -15.906285002547623
            ],
            [
              145.81471074211044,
              -14.393085162678675
            ],
            [
              144.4169329586407,
              -13.945224826012518
            ],
            [
              143.40516427981737,
              -15.01277841511144
            ]
          ]
        ]
      },
      "id": "5795",
      "properties": {
        "id": "5795",
        "license": "ISC",
        "sourceUrl": "https://github.com/am2222/webDggrid"
      }
    },
    {
      "type": "Feature",
      "geometry": {
        "type": "Polygon",
        "coordinates": [
          [
            [
              39.63067934798075,
              -1.2020781508707497
            ],
            [
              38.66452681698515,
              -2.2172330456259726
            ],
            [
              39.07588882533146,
              -3.740924980497981
            ],
            [
              40.433932635798556,
              -4.298685609945428
            ],
            [
              41.38568236669997,
              -3.307040804906263
            ],
            [
              40.99640068689419,
              -1.733953346954986
            ],
            [
              39.63067934798075,
              -1.2020781508707497
            ]
          ]
        ]
      },
      "id": "2561",
      "properties": {
        "id": "2561",
        "license": "ISC",
        "sourceUrl": "https://github.com/am2222/webDggrid"
      }
    },
    {
      "type": "Feature",
      "geometry": {
        "type": "Polygon",
        "coordinates": [
          [
            [
              120.19299636809504,
              -11.82190125975894
            ],
            [
              119.16449878807414,
              -12.826287745431928
            ],
            [
              119.84258191979485,
              -14.03910647059447
            ],
            [
              121.09106654797117,
              -14.704867496486699
            ],
            [
              122.12671227426105,
              -13.699675568817584
            ],
            [
              121.90023479372196,
              -12.030819993971889
            ],
            [
              120.19299636809504,
              -11.82190125975894
            ]
          ]
        ]
      },
      "id": "5889",
      "properties": {
        "id": "5889",
        "license": "ISC",
        "sourceUrl": "https://github.com/am2222/webDggrid"
      }
    },
    {
      "type": "Feature",
      "geometry": {
        "type": "Polygon",
        "coordinates": [
          [
            [
              39.4923388998959,
              -12.933874743186898
            ],
            [
              38.35400793464194,
              -13.89816791024975
            ],
            [
              38.7559161546248,
              -15.227898035120102
            ],
            [
              40.34893934858998,
              -15.629723800435714
            ],
            [
              41.48571998794381,
              -14.655347832627168
            ],
            [
              41.0353832261692,
              -13.298915912771394
            ],
            [
              39.4923388998959,
              -12.933874743186898
            ]
          ]
        ]
      },
      "id": "2448",
      "properties": {
        "id": "2448",
        "license": "ISC",
        "sourceUrl": "https://github.com/am2222/webDggrid"
      }
    },
    {
      "type": "Feature",
      "geometry": {
        "type": "Polygon",
        "coordinates": [
          [
            [
              162.3009973114355,
              12.752790101410502
            ],
            [
              161.0625022791967,
              11.721276911215798
            ],
            [
              161.17533855288787,
              10.271128627052104
            ],
            [
              162.52438822477498,
              9.856723628817122
            ],
            [
              163.78419001624485,
              10.882950420486077
            ],
            [
              163.6735889872531,
              12.329149713056278
            ],
            [
              162.3009973114355,
              12.752790101410502
            ]
          ]
        ]
      },
      "id": "6489",
      "properties": {
        "id": "6489",
        "license": "ISC",
        "sourceUrl": "https://github.com/am2222/webDggrid"
      }
    },
    {
      "type": "Feature",
      "geometry": {
        "type": "Polygon",
        "coordinates": [
          [
            [
              78.29278507567602,
              10.87560082711611
            ],
            [
              77.47763712425447,
              9.491467374283348
            ],
            [
              78.0988165823985,
              8.190709501761749
            ],
            [
              79.52836955133353,
              8.26258476064059
            ],
            [
              80.3380596237527,
              9.635342178324514
            ],
            [
              79.72378278443794,
              10.947660186093863
            ],
            [
              78.29278507567602,
              10.87560082711611
            ]
          ]
        ]
      },
      "id": "5881",
      "properties": {
        "id": "5881",
        "license": "ISC",
        "sourceUrl": "https://github.com/am2222/webDggrid"
      }
    },
    {
      "type": "Feature",
      "geometry": {
        "type": "Polygon",
        "coordinates": [
          [
            [
              97.65990417544903,
              9.899677370625872
            ],
            [
              96.81875581574577,
              8.59523416352561
            ],
            [
              97.44640823817655,
              7.302659242486767
            ],
            [
              98.91533743537686,
              7.32521551461237
            ],
            [
              99.76594978586375,
              8.633404120645503
            ],
            [
              99.13848287458751,
              9.912611867345163
            ],
            [
              97.65990417544903,
              9.899677370625872
            ]
          ]
        ]
      },
      "id": "5984",
      "properties": {
        "id": "5984",
        "license": "ISC",
        "sourceUrl": "https://github.com/am2222/webDggrid"
      }
    },
    {
      "type": "Feature",
      "geometry": {
        "type": "Polygon",
        "coordinates": [
          [
            [
              141.64484436727352,
              -13.020873717688055
            ],
            [
              142.0146559656907,
              -14.551279027420703
            ],
            [
              143.40516427981737,
              -15.01277841511144
            ],
            [
              144.4169329586407,
              -13.945224826012518
            ],
            [
              144.03170692446565,
              -12.424466282997967
            ],
            [
              142.6502388045966,
              -11.961786891347405
            ],
            [
              141.64484436727352,
              -13.020873717688055
            ]
          ]
        ]
      },
      "id": "5823",
      "properties": {
        "id": "5823",
        "license": "ISC",
        "sourceUrl": "https://github.com/am2222/webDggrid"
      }
    },
    {
      "type": "Feature",
      "geometry": {
        "type": "Polygon",
        "coordinates": [
          [
            [
              121.0083133348202,
              8.241904327263148
            ],
            [
              120.02709532593843,
              7.174326237712991
            ],
            [
              120.61430967386404,
              5.875939606375853
            ],
            [
              122.17728132378654,
              5.6185738399138785
            ],
            [
              123.1538014938799,
              6.659487653004601
            ],
            [
              122.57400854818589,
              7.984054491906521
            ],
            [
              121.0083133348202,
              8.241904327263148
            ]
          ]
        ]
      },
      "id": "6114",
      "properties": {
        "id": "6114",
        "license": "ISC",
        "sourceUrl": "https://github.com/am2222/webDggrid"
      }
    },
    {
      "type": "Feature",
      "geometry": {
        "type": "Polygon",
        "coordinates": [
          [
            [
              151.4026862081256,
              -2.350260877563551
            ],
            [
              150.4406239373785,
              -3.4347252178539422
            ],
            [
              150.85292245730403,
              -4.936326403205953
            ],
            [
              152.22855892492765,
              -5.356668332387948
            ],
            [
              153.1850948786141,
              -4.26834521427813
            ],
            [
              152.77135663728967,
              -2.7630415270898987
            ],
            [
              151.4026862081256,
              -2.350260877563551
            ]
          ]
        ]
      },
      "id": "6268",
      "properties": {
        "id": "6268",
        "license": "ISC",
        "sourceUrl": "https://github.com/am2222/webDggrid"
      }
    },
    {
      "type": "Feature",
      "geometry": {
        "type": "Polygon",
        "coordinates": [
          [
            [
              165.90111320648097,
              -16.32117103449114
            ],
            [
              166.39750889122197,
              -17.936949604613968
            ],
            [
              168.16622614304575,
              -18.009699594530606
            ],
            [
              169.0435120542233,
              -16.915641692591716
            ],
            [
              168.16121063485076,
              -15.768444673688663
            ],
            [
              166.78720311424772,
              -15.239413898882642
            ],
            [
              165.90111320648097,
              -16.32117103449114
            ]
          ]
        ]
      },
      "id": "5704",
      "properties": {
        "id": "5704",
        "license": "ISC",
        "sourceUrl": "https://github.com/am2222/webDggrid"
      }
    },
    {
      "type": "Feature",
      "geometry": {
        "type": "Polygon",
        "coordinates": [
          [
            [
              151.16128099649072,
              -10.532034478126292
            ],
            [
              151.5972923354517,
              -12.032949844868842
            ],
            [
              153.0106646861503,
              -12.451084812376099
            ],
            [
              153.97284345987015,
              -11.370573569356042
            ],
            [
              153.5203769419651,
              -9.872658019891512
            ],
            [
              152.1217671947731,
              -9.452697796199018
            ],
            [
              151.16128099649072,
              -10.532034478126292
            ]
          ]
        ]
      },
      "id": "5819",
      "properties": {
        "id": "5819",
        "license": "ISC",
        "sourceUrl": "https://github.com/am2222/webDggrid"
      }
    },
    {
      "type": "Feature",
      "geometry": {
        "type": "Polygon",
        "coordinates": [
          [
            [
              72.57959284136597,
              -5.396003618834139
            ],
            [
              71.50128148610293,
              -6.348139366540015
            ],
            [
              72.08877596326249,
              -7.591150087331865
            ],
            [
              73.75902320361033,
              -7.868065819624129
            ],
            [
              74.59711058633178,
              -6.410522883922659
            ],
            [
              74.00224495291792,
              -5.171619712788117
            ],
            [
              72.57959284136597,
              -5.396003618834139
            ]
          ]
        ]
      },
      "id": "2771",
      "properties": {
        "id": "2771",
        "license": "ISC",
        "sourceUrl": "https://github.com/am2222/webDggrid"
      }
    },
    {
      "type": "Feature",
      "geometry": {
        "type": "Polygon",
        "coordinates": [
          [
            [
              150.05989218685536,
              -15.685238266178931
            ],
            [
              150.49132766279462,
              -17.180900055029124
            ],
            [
              151.93817903597503,
              -17.591996310983742
            ],
            [
              152.93617969178297,
              -16.512588791111348
            ],
            [
              152.4839664064735,
              -15.023008667119553
            ],
            [
              151.05436347624766,
              -14.60763263379092
            ],
            [
              150.05989218685536,
              -15.685238266178931
            ]
          ]
        ]
      },
      "id": "5765",
      "properties": {
        "id": "5765",
        "license": "ISC",
        "sourceUrl": "https://github.com/am2222/webDggrid"
      }
    },
    {
      "type": "Feature",
      "geometry": {
        "type": "Polygon",
        "coordinates": [
          [
            [
              115.9054831643668,
              6.54077401204219
            ],
            [
              114.91659860620834,
              5.470041342600218
            ],
            [
              115.50338791703045,
              4.1922416554301885
            ],
            [
              117.08080532509744,
              3.972752746579234
            ],
            [
              118.06554488460893,
              5.037406037057094
            ],
            [
              117.47766718659422,
              6.326830709758603
            ],
            [
              115.9054831643668,
              6.54077401204219
            ]
          ]
        ]
      },
      "id": "6060",
      "properties": {
        "id": "6060",
        "license": "ISC",
        "sourceUrl": "https://github.com/am2222/webDggrid"
      }
    },
    {
      "type": "Feature",
      "geometry": {
        "type": "Polygon",
        "coordinates": [
          [
            [
              33.0075874444772,
              30.26001240645409
            ],
            [
              33.14828587672505,
              28.800109589211512
            ],
            [
              34.6432699481262,
              28.39720781292698
            ],
            [
              36.06427351900785,
              29.43586249963287
            ],
            [
              35.9340818384215,
              30.89674579606403
            ],
            [
              34.3726520978208,
              31.316092050269557
            ],
            [
              33.0075874444772,
              30.26001240645409
            ]
          ]
        ]
      },
      "id": "3148",
      "properties": {
        "id": "3148",
        "license": "ISC",
        "sourceUrl": "https://github.com/am2222/webDggrid"
      }
    },
    {
      "type": "Feature",
      "geometry": {
        "type": "Polygon",
        "coordinates": [
          [
            [
              124.39559602299015,
              13.782316474850115
            ],
            [
              123.39228143191778,
              12.73064120274728
            ],
            [
              123.97009981010767,
              11.40471113155749
            ],
            [
              125.53690229196971,
              11.121344593682416
            ],
            [
              126.53772329469857,
              12.166819522849432
            ],
            [
              125.97536886832584,
              13.50173732011473
            ],
            [
              124.39559602299015,
              13.782316474850115
            ]
          ]
        ]
      },
      "id": "6197",
      "properties": {
        "id": "6197",
        "license": "ISC",
        "sourceUrl": "https://github.com/am2222/webDggrid"
      }
    },
    {
      "type": "Feature",
      "geometry": {
        "type": "Polygon",
        "coordinates": [
          [
            [
              134.82147769976052,
              33.6294237298543
            ],
            [
              133.47025265988145,
              32.76798822655018
            ],
            [
              134.0233948628241,
              31.45551340444095
            ],
            [
              135.88679729321117,
              31.000847339094115
            ],
            [
              137.2576695744285,
              31.79910336428372
            ],
            [
              136.74560649078848,
              33.116870151078395
            ],
            [
              134.82147769976052,
              33.6294237298543
            ]
          ]
        ]
      },
      "id": "6475",
      "properties": {
        "id": "6475",
        "license": "ISC",
        "sourceUrl": "https://github.com/am2222/webDggrid"
      }
    },
    {
      "type": "Feature",
      "geometry": {
        "type": "Polygon",
        "coordinates": [
          [
            [
              55.68247307582245,
              -4.008486189881978
            ],
            [
              54.711225985986104,
              -5.041631952367318
            ],
            [
              55.29078307824619,
              -6.371448703658384
            ],
            [
              56.84619850612011,
              -6.659487653004599
            ],
            [
              57.82271867621346,
              -5.618573839913878
            ],
            [
              57.23943677172155,
              -4.297117511888775
            ],
            [
              55.68247307582245,
              -4.008486189881978
            ]
          ]
        ]
      },
      "id": "2666",
      "properties": {
        "id": "2666",
        "license": "ISC",
        "sourceUrl": "https://github.com/am2222/webDggrid"
      }
    },
    {
      "type": "Feature",
      "geometry": {
        "type": "Polygon",
        "coordinates": [
          [
            [
              132.05896961211357,
              -9.46152623611008
            ],
            [
              131.07343351465803,
              -10.476276505389617
            ],
            [
              131.4261467396335,
              -12.05145004643119
            ],
            [
              132.78371897803785,
              -12.594600667208356
            ],
            [
              133.77978621002472,
              -11.569141822443273
            ],
            [
              133.40844466018095,
              -10.01144027349736
            ],
            [
              132.05896961211357,
              -9.46152623611008
            ]
          ]
        ]
      },
      "id": "6024",
      "properties": {
        "id": "6024",
        "license": "ISC",
        "sourceUrl": "https://github.com/am2222/webDggrid"
      }
    },
    {
      "type": "Feature",
      "geometry": {
        "type": "Polygon",
        "coordinates": [
          [
            [
              136.73454105442934,
              -8.491117012417826
            ],
            [
              135.75429114695726,
              -9.517521644622233
            ],
            [
              136.14006235917574,
              -11.06027954863902
            ],
            [
              137.51767529149691,
              -11.564040400228645
            ],
            [
              138.5045369700155,
              -10.525928206835573
            ],
            [
              138.10797264783895,
              -8.995571337232809
            ],
            [
              136.73454105442934,
              -8.491117012417826
            ]
          ]
        ]
      },
      "id": "6078",
      "properties": {
        "id": "6078",
        "license": "ISC",
        "sourceUrl": "https://github.com/am2222/webDggrid"
      }
    },
    {
      "type": "Feature",
      "geometry": {
        "type": "Polygon",
        "coordinates": [
          [
            [
              -175.75150074424454,
              -21.986592845688016
            ],
            [
              -174.0537969143255,
              -21.9037335865355
            ],
            [
              -173.24011639299013,
              -20.663242286077693
            ],
            [
              -174.11311456910553,
              -19.52197588923599
            ],
            [
              -175.7970421490452,
              -19.599946944123523
            ],
            [
              -176.62061766668756,
              -20.824655025702686
            ],
            [
              -175.75150074424454,
              -21.986592845688016
            ]
          ]
        ]
      },
      "id": "5059",
      "properties": {
        "id": "5059",
        "license": "ISC",
        "sourceUrl": "https://github.com/am2222/webDggrid"
      }
    }
  ]
}
