{
  "type": "FeatureCollection",
  "metadata": {
    "dggrs": "https://www.opengis.net/def/dggrs/OGC/1.0/ISEA3H",
    "projection": "ISEA",
    "topology": "HEXAGON",
    "aperture": 3,
    "resolution": 6,
    "source": "/geography/eunice-aphroditois-occurrences.geojson",
    "note": "Only ISEA3H cells containing a grid-deduplicated reusable-license GBIF observation are included."
  },
  "features": [
    {
      "type": "Feature",
      "geometry": {
        "type": "Polygon",
        "coordinates": [
          [
            [
              124.90687144191166,
              2.68521003844113
            ],
            [
              123.93914781634203,
              1.6577313426956757
            ],
            [
              124.54041657602065,
              0.34393717265418516
            ],
            [
              126.11712369448715,
              0.055205957777817345
            ],
            [
              127.0777071334917,
              1.0729621943367664
            ],
            [
              126.46930100110183,
              2.389558311364717
            ],
            [
              124.90687144191166,
              2.68521003844113
            ]
          ]
        ]
      },
      "id": "6084",
      "properties": {
        "id": "6084",
        "license": "ISC",
        "sourceUrl": "https://github.com/am2222/webDggrid"
      }
    },
    {
      "type": "Feature",
      "geometry": {
        "type": "Polygon",
        "coordinates": [
          [
            [
              -9.54048194939589,
              35.02241227304789
            ],
            [
              -7.644737220298264,
              35.139774192803486
            ],
            [
              -6.804959442410699,
              36.3950291993051
            ],
            [
              -7.908543147938775,
              37.549780740238944
            ],
            [
              -9.87310063768226,
              37.42782761372409
            ],
            [
              -10.662322366326674,
              36.15678746678024
            ],
            [
              -9.54048194939589,
              35.02241227304789
            ]
          ]
        ]
      },
      "id": "96",
      "properties": {
        "id": "96",
        "license": "ISC",
        "sourceUrl": "https://github.com/am2222/webDggrid"
      }
    },
    {
      "type": "Feature",
      "geometry": {
        "type": "Polygon",
        "coordinates": [
          [
            [
              121.40610068231585,
              10.614550175025892
            ],
            [
              120.4208733713761,
              9.54595806935903
            ],
            [
              121.0083133348202,
              8.241904327263148
            ],
            [
              122.57400854818589,
              7.984054491906521
            ],
            [
              123.55659081924578,
              9.029551928166635
            ],
            [
              122.97860848519561,
              10.35552954185623
            ],
            [
              121.40610068231585,
              10.614550175025892
            ]
          ]
        ]
      },
      "id": "6142",
      "properties": {
        "id": "6142",
        "license": "ISC",
        "sourceUrl": "https://github.com/am2222/webDggrid"
      }
    },
    {
      "type": "Feature",
      "geometry": {
        "type": "Polygon",
        "coordinates": [
          [
            [
              118.27383118780779,
              -8.05502435478753
            ],
            [
              117.25520893070019,
              -9.03747470411386
            ],
            [
              117.87890853723019,
              -10.313452252584081
            ],
            [
              119.53397298704535,
              -10.586069622263851
            ],
            [
              120.54598665786783,
              -9.579410623061277
            ],
            [
              119.90377335117793,
              -8.323455512897471
            ],
            [
              118.27383118780779,
              -8.05502435478753
            ]
          ]
        ]
      },
      "id": "5918",
      "properties": {
        "id": "5918",
        "license": "ISC",
        "sourceUrl": "https://github.com/am2222/webDggrid"
      }
    },
    {
      "type": "Feature",
      "geometry": {
        "type": "Polygon",
        "coordinates": [
          [
            [
              103.69381548507992,
              3.6500451530340268
            ],
            [
              102.84069374998236,
              2.30234359400598
            ],
            [
              103.4455504858627,
              1.040562542316796
            ],
            [
              104.89674658195284,
              1.1405196522750118
            ],
            [
              105.74545346218942,
              2.52038341680811
            ],
            [
              105.1485764988459,
              3.767977873314712
            ],
            [
              103.69381548507992,
              3.6500451530340268
            ]
          ]
        ]
      },
      "id": "5953",
      "properties": {
        "id": "5953",
        "license": "ISC",
        "sourceUrl": "https://github.com/am2222/webDggrid"
      }
    },
    {
      "type": "Feature",
      "geometry": {
        "type": "Polygon",
        "coordinates": [
          [
            [
              20.61194293766775,
              -34.27600336938913
            ],
            [
              18.972496349503622,
              -33.86066893392285
            ],
            [
              17.52642950484882,
              -34.870618768406366
            ],
            [
              17.69694778548432,
              -36.32299868266329
            ],
            [
              19.365326607533635,
              -36.7564924009369
            ],
            [
              20.834846755478477,
              -35.71910285416708
            ],
            [
              20.61194293766775,
              -34.27600336938913
            ]
          ]
        ]
      },
      "id": "1889",
      "properties": {
        "id": "1889",
        "license": "ISC",
        "sourceUrl": "https://github.com/am2222/webDggrid"
      }
    },
    {
      "type": "Feature",
      "geometry": {
        "type": "Polygon",
        "coordinates": [
          [
            [
              119.62425669968655,
              14.547747866286475
            ],
            [
              118.63826656852274,
              13.467265307965397
            ],
            [
              119.23733030177797,
              12.158595540039801
            ],
            [
              120.81692631269205,
              11.924103021591609
            ],
            [
              121.80876768225833,
              12.99153786845216
            ],
            [
              121.21628012090852,
              14.306155150534448
            ],
            [
              119.62425669968655,
              14.547747866286475
            ]
          ]
        ]
      },
      "id": "6171",
      "properties": {
        "id": "6171",
        "license": "ISC",
        "sourceUrl": "https://github.com/am2222/webDggrid"
      }
    },
    {
      "type": "Feature",
      "geometry": {
        "type": "Polygon",
        "coordinates": [
          [
            [
              -87.44078224865612,
              19.359541603775465
            ],
            [
              -86.45500182399569,
              20.71204248701978
            ],
            [
              -86.98654107652064,
              22.081885035348563
            ],
            [
              -88.48906030434931,
              22.099966002696604
            ],
            [
              -89.41137865754717,
              20.746432456183516
            ],
            [
              -88.89605288204346,
              19.374570017283734
            ],
            [
              -87.44078224865612,
              19.359541603775465
            ]
          ]
        ]
      },
      "id": "3802",
      "properties": {
        "id": "3802",
        "license": "ISC",
        "sourceUrl": "https://github.com/am2222/webDggrid"
      }
    },
    {
      "type": "Feature",
      "geometry": {
        "type": "Polygon",
        "coordinates": [
          [
            [
              149.48109156515673,
              -34.95193056388278
            ],
            [
              149.85697913215395,
              -36.36003561543004
            ],
            [
              151.63021877518935,
              -36.66073119122016
            ],
            [
              152.9690022354831,
              -35.54802342608151
            ],
            [
              152.5275514858825,
              -34.1697388786818
            ],
            [
              150.81354653409502,
              -33.86939869208057
            ],
            [
              149.48109156515673,
              -34.95193056388278
            ]
          ]
        ]
      },
      "id": "5547",
      "properties": {
        "id": "5547",
        "license": "ISC",
        "sourceUrl": "https://github.com/am2222/webDggrid"
      }
    },
    {
      "type": "Feature",
      "geometry": {
        "type": "Polygon",
        "coordinates": [
          [
            [
              5.505976828847583,
              5.262939262074722
            ],
            [
              5.990632901436778,
              3.672096030861159
            ],
            [
              7.329825253141075,
              3.2328519677234553
            ],
            [
              8.183196664286195,
              4.361404023988534
            ],
            [
              7.686335835817608,
              5.929151005215249
            ],
            [
              6.348261418452462,
              6.392343302082622
            ],
            [
              5.505976828847583,
              5.262939262074722
            ]
          ]
        ]
      },
      "id": "2969",
      "properties": {
        "id": "2969",
        "license": "ISC",
        "sourceUrl": "https://github.com/am2222/webDggrid"
      }
    },
    {
      "type": "Feature",
      "geometry": {
        "type": "Polygon",
        "coordinates": [
          [
            [
              120.60153074627826,
              39.47772091076316
            ],
            [
              119.38584512348542,
              38.44784198094906
            ],
            [
              120.31931734992344,
              37.25063551328569
            ],
            [
              122.38531544917822,
              37.03586682416963
            ],
            [
              123.61739473663738,
              38.043768206608874
            ],
            [
              122.76814660090214,
              39.28663119422193
            ],
            [
              120.60153074627826,
              39.47772091076316
            ]
          ]
        ]
      },
      "id": "6452",
      "properties": {
        "id": "6452",
        "license": "ISC",
        "sourceUrl": "https://github.com/am2222/webDggrid"
      }
    },
    {
      "type": "Feature",
      "geometry": {
        "type": "Polygon",
        "coordinates": [
          [
            [
              167.3486100204865,
              -45.52437051002633
            ],
            [
              168.20210385041923,
              -46.77837171294454
            ],
            [
              170.56915388453982,
              -46.98685888506501
            ],
            [
              171.958377771035,
              -45.90607194248542
            ],
            [
              171.03021820979424,
              -44.66829792741443
            ],
            [
              168.78435487732912,
              -44.49466597143139
            ],
            [
              167.3486100204865,
              -45.52437051002633
            ]
          ]
        ]
      },
      "id": "5351",
      "properties": {
        "id": "5351",
        "license": "ISC",
        "sourceUrl": "https://github.com/am2222/webDggrid"
      }
    },
    {
      "type": "Feature",
      "geometry": {
        "type": "Polygon",
        "coordinates": [
          [
            [
              -95.78236626787748,
              13.843460712881985
            ],
            [
              -95.1871665256726,
              15.193082928451846
            ],
            [
              -96.08183704714712,
              16.526851444386196
            ],
            [
              -97.52600898905101,
              16.480221540998944
            ],
            [
              -98.10870584772147,
              15.123193253268335
            ],
            [
              -97.24980076768554,
              13.819353560409542
            ],
            [
              -95.78236626787748,
              13.843460712881985
            ]
          ]
        ]
      },
      "id": "3910",
      "properties": {
        "id": "3910",
        "license": "ISC",
        "sourceUrl": "https://github.com/am2222/webDggrid"
      }
    },
    {
      "type": "Feature",
      "geometry": {
        "type": "Polygon",
        "coordinates": [
          [
            [
              174.75569675863008,
              -41.27438052185653
            ],
            [
              175.7145153245842,
              -42.49722476937936
            ],
            [
              177.8568749128591,
              -42.53033157127344
            ],
            [
              178.95029160214315,
              -41.33770223231485
            ],
            [
              177.94206544750367,
              -40.136609070692174
            ],
            [
              175.88668557300556,
              -40.105778761843055
            ],
            [
              174.75569675863008,
              -41.27438052185653
            ]
          ]
        ]
      },
      "id": "5376",
      "properties": {
        "id": "5376",
        "license": "ISC",
        "sourceUrl": "https://github.com/am2222/webDggrid"
      }
    },
    {
      "type": "Feature",
      "geometry": {
        "type": "Polygon",
        "coordinates": [
          [
            [
              171.4337445540857,
              -42.31925055575694
            ],
            [
              172.33383401896188,
              -43.560425872528775
            ],
            [
              174.5240161401316,
              -43.65528284214504
            ],
            [
              175.7145153245842,
              -42.49722476937936
            ],
            [
              174.75569675863008,
              -41.27438052185653
            ],
            [
              172.6618513594251,
              -41.190371576006264
            ],
            [
              171.4337445540857,
              -42.31925055575694
            ]
          ]
        ]
      },
      "id": "5377",
      "properties": {
        "id": "5377",
        "license": "ISC",
        "sourceUrl": "https://github.com/am2222/webDggrid"
      }
    },
    {
      "type": "Feature",
      "geometry": {
        "type": "Polygon",
        "coordinates": [
          [
            [
              135.6691961019325,
              35.75580620567267
            ],
            [
              134.26127870214896,
              34.94466812884573
            ],
            [
              134.82147769976052,
              33.6294237298543
            ],
            [
              136.74560649078848,
              33.116870151078395
            ],
            [
              137.9249947263243,
              34.48955154510532
            ],
            [
              137.4007100528351,
              35.81633077214151
            ],
            [
              135.6691961019325,
              35.75580620567267
            ]
          ]
        ]
      },
      "id": "6503",
      "properties": {
        "id": "6503",
        "license": "ISC",
        "sourceUrl": "https://github.com/am2222/webDggrid"
      }
    },
    {
      "type": "Feature",
      "geometry": {
        "type": "Polygon",
        "coordinates": [
          [
            [
              129.04418651484048,
              34.84655613323557
            ],
            [
              127.78166697097188,
              33.87278024275703
            ],
            [
              128.42876759103336,
              32.56771316575449
            ],
            [
              130.29674370450772,
              32.231027646133484
            ],
            [
              131.57734650130337,
              33.17316411703165
            ],
            [
              130.97291796511524,
              34.48328825814594
            ],
            [
              129.04418651484048,
              34.84655613323557
            ]
          ]
        ]
      },
      "id": "6449",
      "properties": {
        "id": "6449",
        "license": "ISC",
        "sourceUrl": "https://github.com/am2222/webDggrid"
      }
    },
    {
      "type": "Feature",
      "geometry": {
        "type": "Polygon",
        "coordinates": [
          [
            [
              150.44744854112957,
              -32.45007975741327
            ],
            [
              150.81354653409502,
              -33.86939869208057
            ],
            [
              152.5275514858825,
              -34.1697388786818
            ],
            [
              153.81196678441654,
              -33.052822936983176
            ],
            [
              153.37698989599969,
              -31.665526515162604
            ],
            [
              151.73355781295064,
              -31.354823676512584
            ],
            [
              150.44744854112957,
              -32.45007975741327
            ]
          ]
        ]
      },
      "id": "5574",
      "properties": {
        "id": "5574",
        "license": "ISC",
        "sourceUrl": "https://github.com/am2222/webDggrid"
      }
    },
    {
      "type": "Feature",
      "geometry": {
        "type": "Polygon",
        "coordinates": [
          [
            [
              18.768143742048473,
              -32.417943619128415
            ],
            [
              17.162436063983513,
              -31.977821095056132
            ],
            [
              15.733638309857954,
              -32.96140313851295
            ],
            [
              15.894034653686203,
              -34.41095058506984
            ],
            [
              17.52642950484882,
              -34.870618768406366
            ],
            [
              18.972496349503622,
              -33.86066893392285
            ],
            [
              18.768143742048473,
              -32.417943619128415
            ]
          ]
        ]
      },
      "id": "1862",
      "properties": {
        "id": "1862",
        "license": "ISC",
        "sourceUrl": "https://github.com/am2222/webDggrid"
      }
    },
    {
      "type": "Feature",
      "geometry": {
        "type": "Polygon",
        "coordinates": [
          [
            [
              151.42670713445375,
              -29.910468687359508
            ],
            [
              151.73355781295064,
              -31.354823676512584
            ],
            [
              153.37698989599969,
              -31.665526515162604
            ],
            [
              154.6120509180425,
              -30.54557898466199
            ],
            [
              154.2984527356202,
              -29.112952206594215
            ],
            [
              152.787240093795,
              -28.79436656700099
            ],
            [
              151.42670713445375,
              -29.910468687359508
            ]
          ]
        ]
      },
      "id": "5601",
      "properties": {
        "id": "5601",
        "license": "ISC",
        "sourceUrl": "https://github.com/am2222/webDggrid"
      }
    },
    {
      "type": "Feature",
      "geometry": {
        "type": "Polygon",
        "coordinates": [
          [
            [
              124.42947850422348,
              -13.330890375609723
            ],
            [
              123.40448550768257,
              -14.338664932431763
            ],
            [
              123.69649922573565,
              -15.964701917713592
            ],
            [
              125.02955632262575,
              -16.571787396426895
            ],
            [
              126.03902009929189,
              -15.552531876493854
            ],
            [
              125.73265760512797,
              -13.94409005906077
            ],
            [
              124.42947850422348,
              -13.330890375609723
            ]
          ]
        ]
      },
      "id": "5915",
      "properties": {
        "id": "5915",
        "license": "ISC",
        "sourceUrl": "https://github.com/am2222/webDggrid"
      }
    },
    {
      "type": "Feature",
      "geometry": {
        "type": "Polygon",
        "coordinates": [
          [
            [
              148.46530169312237,
              -37.43346916027858
            ],
            [
              148.83806854713825,
              -38.837460513044554
            ],
            [
              150.67071270458032,
              -39.14474812664592
            ],
            [
              152.07027824420962,
              -38.038223663969774
            ],
            [
              151.63021877518935,
              -36.66073119122016
            ],
            [
              149.85697913215395,
              -36.36003561543004
            ],
            [
              148.46530169312237,
              -37.43346916027858
            ]
          ]
        ]
      },
      "id": "5520",
      "properties": {
        "id": "5520",
        "license": "ISC",
        "sourceUrl": "https://github.com/am2222/webDggrid"
      }
    },
    {
      "type": "Feature",
      "geometry": {
        "type": "Polygon",
        "coordinates": [
          [
            [
              127.0777071334917,
              1.0729621943367664
            ],
            [
              126.11712369448715,
              0.055205957777817345
            ],
            [
              126.7463402228003,
              -1.2441690118395907
            ],
            [
              128.35468089518753,
              -1.5189420109991878
            ],
            [
              129.30786938981439,
              -0.5120715053629813
            ],
            [
              128.66008915741048,
              0.7805589761001693
            ],
            [
              127.0777071334917,
              1.0729621943367664
            ]
          ]
        ]
      },
      "id": "6083",
      "properties": {
        "id": "6083",
        "license": "ISC",
        "sourceUrl": "https://github.com/am2222/webDggrid"
      }
    },
    {
      "type": "Feature",
      "geometry": {
        "type": "Polygon",
        "coordinates": [
          [
            [
              13.609188570394577,
              40.71029501525751
            ],
            [
              14.344545955134317,
              39.43672572323867
            ],
            [
              16.38986178978044,
              39.182004199680414
            ],
            [
              17.80515586273216,
              40.14606832521201
            ],
            [
              17.1395397680527,
              41.423238689889544
            ],
            [
              14.98774426942104,
              41.733199306033654
            ],
            [
              13.609188570394577,
              40.71029501525751
            ]
          ]
        ]
      },
      "id": "3345",
      "properties": {
        "id": "3345",
        "license": "ISC",
        "sourceUrl": "https://github.com/am2222/webDggrid"
      }
    },
    {
      "type": "Feature",
      "geometry": {
        "type": "Polygon",
        "coordinates": [
          [
            [
              -73.99429463635829,
              10.603980978302483
            ],
            [
              -73.38088714738623,
              11.897218770278142
            ],
            [
              -74.21788863114907,
              13.304782963362522
            ],
            [
              -75.65606059818923,
              13.407482679118312
            ],
            [
              -76.25246923256901,
              12.09963982538133
            ],
            [
              -75.4283615259577,
              10.703843284401257
            ],
            [
              -73.99429463635829,
              10.603980978302483
            ]
          ]
        ]
      },
      "id": "3808",
      "properties": {
        "id": "3808",
        "license": "ISC",
        "sourceUrl": "https://github.com/am2222/webDggrid"
      }
    },
    {
      "type": "Feature",
      "geometry": {
        "type": "Polygon",
        "coordinates": [
          [
            [
              135.1331502077214,
              -35.29284065197247
            ],
            [
              135.19242925498793,
              -36.7409498946285
            ],
            [
              136.854857124804,
              -37.265140395033576
            ],
            [
              138.40841149957788,
              -36.32234978248681
            ],
            [
              138.28668475284968,
              -34.8728888238819
            ],
            [
              136.67420266477828,
              -34.366926276190235
            ],
            [
              135.1331502077214,
              -35.29284065197247
            ]
          ]
        ]
      },
      "id": "5579",
      "properties": {
        "id": "5579",
        "license": "ISC",
        "sourceUrl": "https://github.com/am2222/webDggrid"
      }
    },
    {
      "type": "Feature",
      "geometry": {
        "type": "Polygon",
        "coordinates": [
          [
            [
              -93.58654364592252,
              26.046066438919564
            ],
            [
              -92.7245779076831,
              27.392307926286758
            ],
            [
              -93.47539635414648,
              28.681266261827275
            ],
            [
              -95.11469048742254,
              28.605854339806477
            ],
            [
              -95.95809810349519,
              27.249172403396027
            ],
            [
              -95.1807944153378,
              25.979656130482507
            ],
            [
              -93.58654364592252,
              26.046066438919564
            ]
          ]
        ]
      },
      "id": "3771",
      "properties": {
        "id": "3771",
        "license": "ISC",
        "sourceUrl": "https://github.com/am2222/webDggrid"
      }
    },
    {
      "type": "Feature",
      "geometry": {
        "type": "Polygon",
        "coordinates": [
          [
            [
              141.99493461690258,
              -38.70393029762505
            ],
            [
              142.22279205594745,
              -40.13629734275168
            ],
            [
              144.0337143886161,
              -40.55806006940455
            ],
            [
              145.5562816462032,
              -39.53345312719231
            ],
            [
              145.25465131548157,
              -38.11210674788095
            ],
            [
              143.503952956682,
              -37.702829705099184
            ],
            [
              141.99493461690258,
              -38.70393029762505
            ]
          ]
        ]
      },
      "id": "5522",
      "properties": {
        "id": "5522",
        "license": "ISC",
        "sourceUrl": "https://github.com/am2222/webDggrid"
      }
    },
    {
      "type": "Feature",
      "geometry": {
        "type": "Polygon",
        "coordinates": [
          [
            [
              -84.10792015578306,
              26.050498251671016
            ],
            [
              -83.1118332384295,
              27.35230393546258
            ],
            [
              -83.70777582487847,
              28.70295459748251
            ],
            [
              -85.32802464414901,
              28.745062898755435
            ],
            [
              -86.30342999864813,
              27.434740368717247
            ],
            [
              -85.67954132919374,
              26.091018820687545
            ],
            [
              -84.10792015578306,
              26.050498251671016
            ]
          ]
        ]
      },
      "id": "3719",
      "properties": {
        "id": "3719",
        "license": "ISC",
        "sourceUrl": "https://github.com/am2222/webDggrid"
      }
    },
    {
      "type": "Feature",
      "geometry": {
        "type": "Polygon",
        "coordinates": [
          [
            [
              138.28668475284968,
              -34.8728888238819
            ],
            [
              138.40841149957788,
              -36.32234978248681
            ],
            [
              140.08166664897365,
              -36.80588050790154
            ],
            [
              141.57952151699342,
              -35.82411464369866
            ],
            [
              141.39650815104136,
              -34.37615695991229
            ],
            [
              139.7774535622447,
              -33.90777752741972
            ],
            [
              138.28668475284968,
              -34.8728888238819
            ]
          ]
        ]
      },
      "id": "5578",
      "properties": {
        "id": "5578",
        "license": "ISC",
        "sourceUrl": "https://github.com/am2222/webDggrid"
      }
    },
    {
      "type": "Feature",
      "geometry": {
        "type": "Polygon",
        "coordinates": [
          [
            [
              -78.09881658050104,
              8.19070950289314
            ],
            [
              -77.47763712241674,
              9.491467375377944
            ],
            [
              -78.29278507397932,
              10.87560082813983
            ],
            [
              -79.72378278282147,
              10.947660187081024
            ],
            [
              -80.33805962207427,
              9.635342179347097
            ],
            [
              -79.5283695495151,
              8.262584761736486
            ],
            [
              -78.09881658050104,
              8.19070950289314
            ]
          ]
        ]
      },
      "id": "3862",
      "properties": {
        "id": "3862",
        "license": "ISC",
        "sourceUrl": "https://github.com/am2222/webDggrid"
      }
    },
    {
      "type": "Feature",
      "geometry": {
        "type": "Polygon",
        "coordinates": [
          [
            [
              16.438518835830486,
              -26.23828527598579
            ],
            [
              14.916114631698727,
              -25.779344892071872
            ],
            [
              13.543352599780338,
              -26.732378258565518
            ],
            [
              13.688733467156261,
              -28.16266959384713
            ],
            [
              15.236802470502415,
              -28.640555740852395
            ],
            [
              16.613996684994497,
              -27.668253406323775
            ],
            [
              16.438518835830486,
              -26.23828527598579
            ]
          ]
        ]
      },
      "id": "1809",
      "properties": {
        "id": "1809",
        "license": "ISC",
        "sourceUrl": "https://github.com/am2222/webDggrid"
      }
    },
    {
      "type": "Feature",
      "geometry": {
        "type": "Polygon",
        "coordinates": [
          [
            [
              174.5240161401316,
              -43.65528284214504
            ],
            [
              175.51725358027483,
              -44.87388452141866
            ],
            [
              177.75933281791802,
              -44.91259550664984
            ],
            [
              178.90495385106533,
              -43.72648893494568
            ],
            [
              177.8568749128591,
              -42.53033157127344
            ],
            [
              175.7145153245842,
              -42.49722476937936
            ],
            [
              174.5240161401316,
              -43.65528284214504
            ]
          ]
        ]
      },
      "id": "5349",
      "properties": {
        "id": "5349",
        "license": "ISC",
        "sourceUrl": "https://github.com/am2222/webDggrid"
      }
    },
    {
      "type": "Feature",
      "geometry": {
        "type": "Polygon",
        "coordinates": [
          [
            [
              150.78883517273664,
              -22.748745858298687
            ],
            [
              151.24321012212778,
              -24.24352863116021
            ],
            [
              152.75247814744796,
              -24.62130188979918
            ],
            [
              153.79378914773824,
              -23.5237996820348
            ],
            [
              153.31664886152345,
              -22.04505045420806
            ],
            [
              151.8233649015966,
              -21.65136538896016
            ],
            [
              150.78883517273664,
              -22.748745858298687
            ]
          ]
        ]
      },
      "id": "5683",
      "properties": {
        "id": "5683",
        "license": "ISC",
        "sourceUrl": "https://github.com/am2222/webDggrid"
      }
    },
    {
      "type": "Feature",
      "geometry": {
        "type": "Polygon",
        "coordinates": [
          [
            [
              -110.71470563714874,
              23.0019490794937
            ],
            [
              -109.90016906418624,
              24.262913639089632
            ],
            [
              -110.81807079215685,
              25.368075603496525
            ],
            [
              -112.58244281727826,
              25.212059728888647
            ],
            [
              -113.36246873737932,
              23.932997220897466
            ],
            [
              -112.41439902165833,
              22.829677456852952
            ],
            [
              -110.71470563714874,
              23.0019490794937
            ]
          ]
        ]
      },
      "id": "3876",
      "properties": {
        "id": "3876",
        "license": "ISC",
        "sourceUrl": "https://github.com/am2222/webDggrid"
      }
    },
    {
      "type": "Feature",
      "geometry": {
        "type": "Polygon",
        "coordinates": [
          [
            [
              -116.732681625293,
              31.850857005950242
            ],
            [
              -115.83862998764972,
              33.069398529006634
            ],
            [
              -116.91186011312874,
              34.126845121367396
            ],
            [
              -118.90028946362897,
              33.951619736138426
            ],
            [
              -119.73033102738042,
              32.69641092604302
            ],
            [
              -118.63670212548625,
              31.65220146791186
            ],
            [
              -116.732681625293,
              31.850857005950242
            ]
          ]
        ]
      },
      "id": "3790",
      "properties": {
        "id": "3790",
        "license": "ISC",
        "sourceUrl": "https://github.com/am2222/webDggrid"
      }
    },
    {
      "type": "Feature",
      "geometry": {
        "type": "Polygon",
        "coordinates": [
          [
            [
              175.1517503170803,
              0.17440713368911545
            ],
            [
              174.34824838998728,
              -0.9655987050627157
            ],
            [
              174.856221617223,
              -2.535839599285936
            ],
            [
              176.17686175271493,
              -2.988770300786222
            ],
            [
              177.01903205436824,
              -1.8440381719265275
            ],
            [
              176.50476807748248,
              -0.25887182038578954
            ],
            [
              175.1517503170803,
              0.17440713368911545
            ]
          ]
        ]
      },
      "id": "6509",
      "properties": {
        "id": "6509",
        "license": "ISC",
        "sourceUrl": "https://github.com/am2222/webDggrid"
      }
    },
    {
      "type": "Feature",
      "geometry": {
        "type": "Polygon",
        "coordinates": [
          [
            [
              144.0337143886161,
              -40.55806006940455
            ],
            [
              144.3188235584422,
              -41.97808168506712
            ],
            [
              146.20495956134778,
              -42.35896344938576
            ],
            [
              147.74127259036968,
              -41.30529149504583
            ],
            [
              147.37871139729825,
              -39.90161975165333
            ],
            [
              145.5562816462032,
              -39.53345312719231
            ],
            [
              144.0337143886161,
              -40.55806006940455
            ]
          ]
        ]
      },
      "id": "5494",
      "properties": {
        "id": "5494",
        "license": "ISC",
        "sourceUrl": "https://github.com/am2222/webDggrid"
      }
    },
    {
      "type": "Feature",
      "geometry": {
        "type": "Polygon",
        "coordinates": [
          [
            [
              -110.86044057345778,
              27.68074522266128
            ],
            [
              -109.89110756338879,
              28.833203431958903
            ],
            [
              -110.84015727552655,
              29.926242392251787
            ],
            [
              -112.78079200048404,
              29.855112687472467
            ],
            [
              -113.67789015477675,
              28.641497680332634
            ],
            [
              -112.70518795359139,
              27.55731117156269
            ],
            [
              -110.86044057345778,
              27.68074522266128
            ]
          ]
        ]
      },
      "id": "3820",
      "properties": {
        "id": "3820",
        "license": "ISC",
        "sourceUrl": "https://github.com/am2222/webDggrid"
      }
    },
    {
      "type": "Feature",
      "geometry": {
        "type": "Polygon",
        "coordinates": [
          [
            [
              -77.88017423259168,
              5.543673807140882
            ],
            [
              -77.27483305125241,
              6.826161344074417
            ],
            [
              -78.09881658050104,
              8.19070950289314
            ],
            [
              -79.5283695495151,
              8.262584761736486
            ],
            [
              -80.15113103294746,
              6.959686601440228
            ],
            [
              -79.32742028621274,
              5.605308075452658
            ],
            [
              -77.88017423259168,
              5.543673807140882
            ]
          ]
        ]
      },
      "id": "947",
      "properties": {
        "id": "947",
        "license": "ISC",
        "sourceUrl": "https://github.com/am2222/webDggrid"
      }
    },
    {
      "type": "Feature",
      "geometry": {
        "type": "Polygon",
        "coordinates": [
          [
            [
              145.25465131548157,
              -38.11210674788095
            ],
            [
              145.5562816462032,
              -39.53345312719231
            ],
            [
              147.37871139729825,
              -39.90161975165333
            ],
            [
              148.83806854713825,
              -38.837460513044554
            ],
            [
              148.46530169312237,
              -37.43346916027858
            ],
            [
              146.7039223648447,
              -37.074195596205655
            ],
            [
              145.25465131548157,
              -38.11210674788095
            ]
          ]
        ]
      },
      "id": "5521",
      "properties": {
        "id": "5521",
        "license": "ISC",
        "sourceUrl": "https://github.com/am2222/webDggrid"
      }
    },
    {
      "type": "Feature",
      "geometry": {
        "type": "Polygon",
        "coordinates": [
          [
            [
              23.661155548726864,
              -33.601735585386834
            ],
            [
              22.017138419115234,
              -33.230788170770545
            ],
            [
              20.61194293766775,
              -34.27600336938913
            ],
            [
              20.834846755478477,
              -35.71910285416708
            ],
            [
              22.51183043682509,
              -36.10624557297378
            ],
            [
              23.932991519647217,
              -35.033713821499894
            ],
            [
              23.661155548726864,
              -33.601735585386834
            ]
          ]
        ]
      },
      "id": "1917",
      "properties": {
        "id": "1917",
        "license": "ISC",
        "sourceUrl": "https://github.com/am2222/webDggrid"
      }
    },
    {
      "type": "Feature",
      "geometry": {
        "type": "Polygon",
        "coordinates": [
          [
            [
              169.6771333600912,
              -33.74601180543974
            ],
            [
              170.45951805078482,
              -35.02241227162851
            ],
            [
              172.3552627798621,
              -35.13977419121701
            ],
            [
              173.40819442312866,
              -33.978999945457026
            ],
            [
              172.58101365433194,
              -32.72003904116696
            ],
            [
              170.7428463183467,
              -32.603668011334065
            ],
            [
              169.6771333600912,
              -33.74601180543974
            ]
          ]
        ]
      },
      "id": "5486",
      "properties": {
        "id": "5486",
        "license": "ISC",
        "sourceUrl": "https://github.com/am2222/webDggrid"
      }
    },
    {
      "type": "Feature",
      "geometry": {
        "type": "Polygon",
        "coordinates": [
          [
            [
              124.39559602299015,
              13.782316474850115
            ],
            [
              123.39228143191778,
              12.73064120274728
            ],
            [
              123.97009981010767,
              11.40471113155749
            ],
            [
              125.53690229196971,
              11.121344593682416
            ],
            [
              126.53772329469857,
              12.166819522849432
            ],
            [
              125.97536886832584,
              13.50173732011473
            ],
            [
              124.39559602299015,
              13.782316474850115
            ]
          ]
        ]
      },
      "id": "6197",
      "properties": {
        "id": "6197",
        "license": "ISC",
        "sourceUrl": "https://github.com/am2222/webDggrid"
      }
    },
    {
      "type": "Feature",
      "geometry": {
        "type": "Polygon",
        "coordinates": [
          [
            [
              174.95759546849996,
              -38.878342858476046
            ],
            [
              175.88668557300556,
              -40.105778761843055
            ],
            [
              177.94206544750367,
              -40.136609070692174
            ],
            [
              178.9898798395025,
              -38.93983958589002
            ],
            [
              178.01633210319514,
              -37.73388938714476
            ],
            [
              176.03657585340656,
              -37.70266769941578
            ],
            [
              174.95759546849996,
              -38.878342858476046
            ]
          ]
        ]
      },
      "id": "5403",
      "properties": {
        "id": "5403",
        "license": "ISC",
        "sourceUrl": "https://github.com/am2222/webDggrid"
      }
    },
    {
      "type": "Feature",
      "geometry": {
        "type": "Polygon",
        "coordinates": [
          [
            [
              118.53677879417363,
              -19.46511660624563
            ],
            [
              118.29281585960352,
              -20.867235495756763
            ],
            [
              119.63144164990771,
              -21.489462182490804
            ],
            [
              121.20594626478561,
              -20.73706557024245
            ],
            [
              121.44998226362601,
              -19.36133816067078
            ],
            [
              120.1115510517592,
              -18.71509863061
            ],
            [
              118.53677879417363,
              -19.46511660624563
            ]
          ]
        ]
      },
      "id": "5805",
      "properties": {
        "id": "5805",
        "license": "ISC",
        "sourceUrl": "https://github.com/am2222/webDggrid"
      }
    },
    {
      "type": "Feature",
      "geometry": {
        "type": "Polygon",
        "coordinates": [
          [
            [
              171.7857662917922,
              -39.94469709414144
            ],
            [
              172.6618513594251,
              -41.190371576006264
            ],
            [
              174.75569675863008,
              -41.27438052185653
            ],
            [
              175.88668557300556,
              -40.105778761843055
            ],
            [
              174.95759546849996,
              -38.878342858476046
            ],
            [
              172.94748518087982,
              -38.800377477408745
            ],
            [
              171.7857662917922,
              -39.94469709414144
            ]
          ]
        ]
      },
      "id": "5404",
      "properties": {
        "id": "5404",
        "license": "ISC",
        "sourceUrl": "https://github.com/am2222/webDggrid"
      }
    },
    {
      "type": "Feature",
      "geometry": {
        "type": "Polygon",
        "coordinates": [
          [
            [
              71.28069595190802,
              3.7440746660088693
            ],
            [
              70.45739210737969,
              2.3054323795718736
            ],
            [
              71.0487085780168,
              1.0532688850898373
            ],
            [
              72.47093822701251,
              1.2319725313023064
            ],
            [
              73.30860129938583,
              2.6319383225973043
            ],
            [
              72.7101783722601,
              3.8929960950701825
            ],
            [
              71.28069595190802,
              3.7440746660088693
            ]
          ]
        ]
      },
      "id": "2856",
      "properties": {
        "id": "2856",
        "license": "ISC",
        "sourceUrl": "https://github.com/am2222/webDggrid"
      }
    },
    {
      "type": "Feature",
      "geometry": {
        "type": "Polygon",
        "coordinates": [
          [
            [
              -4.285484675565123,
              42.4972247713124
            ],
            [
              -2.143125087220891,
              42.53033157337055
            ],
            [
              -1.0950461489790624,
              43.72648893712821
            ],
            [
              -2.240667182174416,
              44.91259550875581
            ],
            [
              -4.482746419898042,
              44.873884523360026
            ],
            [
              -5.475983860062044,
              43.65528284399905
            ],
            [
              -4.285484675565123,
              42.4972247713124
            ]
          ]
        ]
      },
      "id": "38",
      "properties": {
        "id": "38",
        "license": "ISC",
        "sourceUrl": "https://github.com/am2222/webDggrid"
      }
    },
    {
      "type": "Feature",
      "geometry": {
        "type": "Polygon",
        "coordinates": [
          [
            [
              139.37492997728248,
              39.798790913975964
            ],
            [
              138.09412291548057,
              38.48878918709004
            ],
            [
              138.63063257927539,
              37.15064634103097
            ],
            [
              140.4120913537555,
              37.10228823471975
            ],
            [
              141.7144933544623,
              38.36227876063996
            ],
            [
              141.21627979026633,
              39.720885100541224
            ],
            [
              139.37492997728248,
              39.798790913975964
            ]
          ]
        ]
      },
      "id": "6558",
      "properties": {
        "id": "6558",
        "license": "ISC",
        "sourceUrl": "https://github.com/am2222/webDggrid"
      }
    },
    {
      "type": "Feature",
      "geometry": {
        "type": "Polygon",
        "coordinates": [
          [
            [
              147.01651173632294,
              -18.928868950514467
            ],
            [
              147.42728080204986,
              -20.439893584376687
            ],
            [
              148.87934709733463,
              -20.85125752624223
            ],
            [
              149.90813443785552,
              -19.75929303919684
            ],
            [
              149.47859666051647,
              -18.26256672377228
            ],
            [
              148.0398355136068,
              -17.84441672582458
            ],
            [
              147.01651173632294,
              -18.928868950514467
            ]
          ]
        ]
      },
      "id": "5739",
      "properties": {
        "id": "5739",
        "license": "ISC",
        "sourceUrl": "https://github.com/am2222/webDggrid"
      }
    },
    {
      "type": "Feature",
      "geometry": {
        "type": "Polygon",
        "coordinates": [
          [
            [
              165.4745031310653,
              -21.26113498336371
            ],
            [
              166.30609167761656,
              -22.494351619529624
            ],
            [
              168.03329202006728,
              -22.654408332120465
            ],
            [
              168.94442587237407,
              -21.547176623511483
            ],
            [
              168.12474098185425,
              -20.308123528424133
            ],
            [
              166.3827596893851,
              -20.18247383161896
            ],
            [
              165.4745031310653,
              -21.26113498336371
            ]
          ]
        ]
      },
      "id": "5650",
      "properties": {
        "id": "5650",
        "license": "ISC",
        "sourceUrl": "https://github.com/am2222/webDggrid"
      }
    },
    {
      "type": "Feature",
      "geometry": {
        "type": "Polygon",
        "coordinates": [
          [
            [
              145.19380068431443,
              -16.982399885192656
            ],
            [
              145.58772411324335,
              -18.50027718241054
            ],
            [
              147.01651173632294,
              -18.928868950514467
            ],
            [
              148.0398355136068,
              -17.84441672582458
            ],
            [
              147.6283167595343,
              -16.3391867905817
            ],
            [
              146.2115176569819,
              -15.906285002547623
            ],
            [
              145.19380068431443,
              -16.982399885192656
            ]
          ]
        ]
      },
      "id": "5767",
      "properties": {
        "id": "5767",
        "license": "ISC",
        "sourceUrl": "https://github.com/am2222/webDggrid"
      }
    },
    {
      "type": "Feature",
      "geometry": {
        "type": "Polygon",
        "coordinates": [
          [
            [
              113.05176241884777,
              -31.39481615850491
            ],
            [
              112.7105971879748,
              -32.74895261268017
            ],
            [
              114.07143699334414,
              -33.994853365626916
            ],
            [
              115.90470441198708,
              -33.27781402008106
            ],
            [
              116.19330191171562,
              -31.914676607721827
            ],
            [
              114.70496497705436,
              -31.28272291230826
            ],
            [
              113.05176241884777,
              -31.39481615850491
            ]
          ]
        ]
      },
      "id": "5641",
      "properties": {
        "id": "5641",
        "license": "ISC",
        "sourceUrl": "https://github.com/am2222/webDggrid"
      }
    },
    {
      "type": "Feature",
      "geometry": {
        "type": "Polygon",
        "coordinates": [
          [
            [
              152.20359585096534,
              -27.24955465135558
            ],
            [
              152.787240093795,
              -28.79436656700099
            ],
            [
              154.2984527356202,
              -29.112952206594215
            ],
            [
              155.29258050256985,
              -27.94520979473162
            ],
            [
              154.7806147726063,
              -26.473757221044742
            ],
            [
              153.23352477793176,
              -26.10544592413076
            ],
            [
              152.20359585096534,
              -27.24955465135558
            ]
          ]
        ]
      },
      "id": "5628",
      "properties": {
        "id": "5628",
        "license": "ISC",
        "sourceUrl": "https://github.com/am2222/webDggrid"
      }
    },
    {
      "type": "Feature",
      "geometry": {
        "type": "Polygon",
        "coordinates": [
          [
            [
              150.2097109576365,
              -25.371990575576742
            ],
            [
              150.69873673321297,
              -26.89738360331966
            ],
            [
              152.20359585096534,
              -27.24955465135558
            ],
            [
              153.23352477793176,
              -26.10544592413076
            ],
            [
              152.75247814744796,
              -24.62130188979918
            ],
            [
              151.24321012212778,
              -24.24352863116021
            ],
            [
              150.2097109576365,
              -25.371990575576742
            ]
          ]
        ]
      },
      "id": "5656",
      "properties": {
        "id": "5656",
        "license": "ISC",
        "sourceUrl": "https://github.com/am2222/webDggrid"
      }
    },
    {
      "type": "Feature",
      "geometry": {
        "type": "Polygon",
        "coordinates": [
          [
            [
              136.60273119210956,
              -32.91353935390838
            ],
            [
              136.67420266477828,
              -34.366926276190235
            ],
            [
              138.28668475284968,
              -34.8728888238819
            ],
            [
              139.7774535622447,
              -33.90777752741972
            ],
            [
              139.65344438800335,
              -32.45249105673104
            ],
            [
              138.09175902572608,
              -31.963929275700053
            ],
            [
              136.60273119210956,
              -32.91353935390838
            ]
          ]
        ]
      },
      "id": "5606",
      "properties": {
        "id": "5606",
        "license": "ISC",
        "sourceUrl": "https://github.com/am2222/webDggrid"
      }
    },
    {
      "type": "Feature",
      "geometry": {
        "type": "Polygon",
        "coordinates": [
          [
            [
              143.40516427981737,
              -15.01277841511144
            ],
            [
              143.78546588301108,
              -16.53705932489053
            ],
            [
              145.19380068431443,
              -16.982399885192656
            ],
            [
              146.2115176569819,
              -15.906285002547623
            ],
            [
              145.81471074211044,
              -14.393085162678675
            ],
            [
              144.4169329586407,
              -13.945224826012518
            ],
            [
              143.40516427981737,
              -15.01277841511144
            ]
          ]
        ]
      },
      "id": "5795",
      "properties": {
        "id": "5795",
        "license": "ISC",
        "sourceUrl": "https://github.com/am2222/webDggrid"
      }
    },
    {
      "type": "Feature",
      "geometry": {
        "type": "Polygon",
        "coordinates": [
          [
            [
              122.12671227426105,
              -13.699675568817584
            ],
            [
              121.09106654797117,
              -14.704867496486699
            ],
            [
              121.36819371436975,
              -16.34980642023525
            ],
            [
              122.69795157862877,
              -16.97874038168929
            ],
            [
              123.69649922573565,
              -15.964701917713592
            ],
            [
              123.40448550768257,
              -14.338664932431763
            ],
            [
              122.12671227426105,
              -13.699675568817584
            ]
          ]
        ]
      },
      "id": "5888",
      "properties": {
        "id": "5888",
        "license": "ISC",
        "sourceUrl": "https://github.com/am2222/webDggrid"
      }
    },
    {
      "type": "Feature",
      "geometry": {
        "type": "Polygon",
        "coordinates": [
          [
            [
              -123.46927376896919,
              47.45842597875364
            ],
            [
              -122.96658207342966,
              49.108262700824554
            ],
            [
              -125.30998930370954,
              49.82575689119802
            ],
            [
              -127.22637989832614,
              49.141291390094054
            ],
            [
              -126.76033899022555,
              47.795767496079584
            ],
            [
              -125.33004128381964,
              46.81324889191955
            ],
            [
              -123.46927376896919,
              47.45842597875364
            ]
          ]
        ]
      },
      "id": "705",
      "properties": {
        "id": "705",
        "license": "ISC",
        "sourceUrl": "https://github.com/am2222/webDggrid"
      }
    },
    {
      "type": "Feature",
      "geometry": {
        "type": "Polygon",
        "coordinates": [
          [
            [
              22.36508016316889,
              38.502639913519246
            ],
            [
              22.911933499382748,
              37.19927855493884
            ],
            [
              24.74584702320408,
              37.10076709857331
            ],
            [
              26.08900804421263,
              38.267219691664685
            ],
            [
              25.590479723786206,
              39.613622861820694
            ],
            [
              23.69509342422408,
              39.75223112269078
            ],
            [
              22.36508016316889,
              38.502639913519246
            ]
          ]
        ]
      },
      "id": "3288",
      "properties": {
        "id": "3288",
        "license": "ISC",
        "sourceUrl": "https://github.com/am2222/webDggrid"
      }
    }
  ]
}
