{
  "type": "FeatureCollection",
  "metadata": {
    "source": "GBIF occurrence search",
    "sourceUrl": "https://www.gbif.org/species/5218020",
    "taxonKey": 5218020,
    "generatedAt": "2026-09-08T12:35:43.297Z",
    "note": "Reusable-license occurrence records, grid-deduplicated to one record per 0.5 degree cell. Not a range boundary."
  },
  "features": [
    {
      "type": "Feature",
      "id": 2978380717,
      "geometry": {
        "type": "Point",
        "coordinates": [
          -77.585797,
          2.867681
        ]
      },
      "properties": {
        "scientificName": "Phyllobates terribilis Myers, Daly & Malkin, 1978",
        "datasetTitle": null,
        "occurrenceID": "Ecohabitats:Eperara_Anfibios:23",
        "basisOfRecord": "HUMAN_OBSERVATION",
        "eventDate": "2018-09-07/2018-09-15",
        "year": 2018,
        "month": 9,
        "day": null,
        "recordedBy": "Gustavo Pisso Florez",
        "license": "http://creativecommons.org/licenses/by/4.0/legalcode",
        "sourceUrl": "https://www.gbif.org/occurrence/2978380717"
      }
    },
    {
      "type": "Feature",
      "id": 1989893629,
      "geometry": {
        "type": "Point",
        "coordinates": [
          -77.40656,
          3.29794
        ]
      },
      "properties": {
        "scientificName": "Phyllobates terribilis Myers, Daly & Malkin, 1978",
        "datasetTitle": null,
        "occurrenceID": "UNIVALLE:CONVENIO_091:JOAQUINCITO:0044",
        "basisOfRecord": "HUMAN_OBSERVATION",
        "eventDate": "2017-01-24",
        "year": 2017,
        "month": 1,
        "day": 24,
        "recordedBy": "Mónica Gómez Díaz|Ximena García González|Camilo Linares Vargas|Wilmar Bolívar García",
        "license": "http://creativecommons.org/publicdomain/zero/1.0/legalcode",
        "sourceUrl": "https://www.gbif.org/occurrence/1989893629"
      }
    }
  ]
}
