{
  "type": "FeatureCollection",
  "metadata": {
    "dggrs": "https://www.opengis.net/def/dggrs/OGC/1.0/ISEA3H",
    "projection": "ISEA",
    "topology": "HEXAGON",
    "aperture": 3,
    "resolution": 6,
    "source": "/geography/synanceia-verrucosa-occurrences.geojson",
    "note": "Only ISEA3H cells containing a grid-deduplicated reusable-license GBIF observation are included."
  },
  "features": [
    {
      "type": "Feature",
      "geometry": {
        "type": "Polygon",
        "coordinates": [
          [
            [
              121.40610068231585,
              10.614550175025892
            ],
            [
              120.4208733713761,
              9.54595806935903
            ],
            [
              121.0083133348202,
              8.241904327263148
            ],
            [
              122.57400854818589,
              7.984054491906521
            ],
            [
              123.55659081924578,
              9.029551928166635
            ],
            [
              122.97860848519561,
              10.35552954185623
            ],
            [
              121.40610068231585,
              10.614550175025892
            ]
          ]
        ]
      },
      "id": "6142",
      "properties": {
        "id": "6142",
        "license": "ISC",
        "sourceUrl": "https://github.com/am2222/webDggrid"
      }
    },
    {
      "type": "Feature",
      "geometry": {
        "type": "Polygon",
        "coordinates": [
          [
            [
              123.93885802152079,
              24.85832404075017
            ],
            [
              122.8692989483846,
              23.820747491148122
            ],
            [
              123.49265217611743,
              22.495337307010825
            ],
            [
              125.16528601988222,
              22.219319717964403
            ],
            [
              126.24708758113958,
              23.263254130347466
            ],
            [
              125.64614334516476,
              24.576424712710192
            ],
            [
              123.93885802152079,
              24.85832404075017
            ]
          ]
        ]
      },
      "id": "6310",
      "properties": {
        "id": "6310",
        "license": "ISC",
        "sourceUrl": "https://github.com/am2222/webDggrid"
      }
    },
    {
      "type": "Feature",
      "geometry": {
        "type": "Polygon",
        "coordinates": [
          [
            [
              175.8290366826548,
              -17.230387078068173
            ],
            [
              176.652748736193,
              -18.443912809778347
            ],
            [
              178.32698139329713,
              -18.493091497767267
            ],
            [
              179.16702189284814,
              -17.32346417020578
            ],
            [
              178.33909840901157,
              -16.123450666921354
            ],
            [
              176.67454623930234,
              -16.079980872695018
            ],
            [
              175.8290366826548,
              -17.230387078068173
            ]
          ]
        ]
      },
      "id": "5646",
      "properties": {
        "id": "5646",
        "license": "ISC",
        "sourceUrl": "https://github.com/am2222/webDggrid"
      }
    },
    {
      "type": "Feature",
      "geometry": {
        "type": "Polygon",
        "coordinates": [
          [
            [
              116.02938559356276,
              -6.493022965385892
            ],
            [
              114.9915095300098,
              -7.453791373616368
            ],
            [
              115.60276968404757,
              -8.723213741434373
            ],
            [
              117.25520893070019,
              -9.03747470411386
            ],
            [
              118.27383118780779,
              -8.05502435478753
            ],
            [
              117.65915652944297,
              -6.779429320260057
            ],
            [
              116.02938559356276,
              -6.493022965385892
            ]
          ]
        ]
      },
      "id": "5919",
      "properties": {
        "id": "5919",
        "license": "ISC",
        "sourceUrl": "https://github.com/am2222/webDggrid"
      }
    },
    {
      "type": "Feature",
      "geometry": {
        "type": "Polygon",
        "coordinates": [
          [
            [
              119.62425669968655,
              14.547747866286475
            ],
            [
              118.63826656852274,
              13.467265307965397
            ],
            [
              119.23733030177797,
              12.158595540039801
            ],
            [
              120.81692631269205,
              11.924103021591609
            ],
            [
              121.80876768225833,
              12.99153786845216
            ],
            [
              121.21628012090852,
              14.306155150534448
            ],
            [
              119.62425669968655,
              14.547747866286475
            ]
          ]
        ]
      },
      "id": "6171",
      "properties": {
        "id": "6171",
        "license": "ISC",
        "sourceUrl": "https://github.com/am2222/webDggrid"
      }
    },
    {
      "type": "Feature",
      "geometry": {
        "type": "Polygon",
        "coordinates": [
          [
            [
              31.69195916297877,
              27.738793901415974
            ],
            [
              32.26453164200056,
              26.154199995652174
            ],
            [
              33.72773167900136,
              25.76121678469272
            ],
            [
              34.63232134015474,
              26.9546200388328
            ],
            [
              34.6432699481262,
              28.39720781292698
            ],
            [
              33.14828587672505,
              28.800109589211512
            ],
            [
              31.69195916297877,
              27.738793901415974
            ]
          ]
        ]
      },
      "id": "3121",
      "properties": {
        "id": "3121",
        "license": "ISC",
        "sourceUrl": "https://github.com/am2222/webDggrid"
      }
    },
    {
      "type": "Feature",
      "geometry": {
        "type": "Polygon",
        "coordinates": [
          [
            [
              149.065517697305,
              -3.013477452698911
            ],
            [
              148.09768843212765,
              -4.085661620217372
            ],
            [
              148.50953482882116,
              -5.586086692672352
            ],
            [
              149.88970235567928,
              -6.014895361257253
            ],
            [
              150.85292245730403,
              -4.936326403205953
            ],
            [
              150.4406239373785,
              -3.4347252178539422
            ],
            [
              149.065517697305,
              -3.013477452698911
            ]
          ]
        ]
      },
      "id": "6241",
      "properties": {
        "id": "6241",
        "license": "ISC",
        "sourceUrl": "https://github.com/am2222/webDggrid"
      }
    },
    {
      "type": "Feature",
      "geometry": {
        "type": "Polygon",
        "coordinates": [
          [
            [
              147.9568708380758,
              -8.160190984063112
            ],
            [
              146.98711934067984,
              -9.228271223393538
            ],
            [
              147.40005003857306,
              -10.740209989496819
            ],
            [
              148.79209400749238,
              -11.178341405786089
            ],
            [
              149.76535074390713,
              -10.10384509017265
            ],
            [
              149.34279648035945,
              -8.5954371070806
            ],
            [
              147.9568708380758,
              -8.160190984063112
            ]
          ]
        ]
      },
      "id": "6185",
      "properties": {
        "id": "6185",
        "license": "ISC",
        "sourceUrl": "https://github.com/am2222/webDggrid"
      }
    },
    {
      "type": "Feature",
      "geometry": {
        "type": "Polygon",
        "coordinates": [
          [
            [
              -151.93817903732798,
              -17.591996310613748
            ],
            [
              -150.49132766422892,
              -17.180900054638855
            ],
            [
              -150.05989218844476,
              -15.685238265747962
            ],
            [
              -151.0543634779102,
              -14.607632633336829
            ],
            [
              -152.48396640805652,
              -15.023008666684005
            ],
            [
              -152.93617969321164,
              -16.51258879071915
            ],
            [
              -151.93817903732798,
              -17.591996310613748
            ]
          ]
        ]
      },
      "id": "4784",
      "properties": {
        "id": "4784",
        "license": "ISC",
        "sourceUrl": "https://github.com/am2222/webDggrid"
      }
    },
    {
      "type": "Feature",
      "geometry": {
        "type": "Polygon",
        "coordinates": [
          [
            [
              39.07588882533146,
              -3.740924980497981
            ],
            [
              38.10855331382425,
              -4.74944458000948
            ],
            [
              38.51747499115911,
              -6.2836833201437345
            ],
            [
              39.837639916892215,
              -6.908368623307796
            ],
            [
              40.786754785191626,
              -5.925934223678999
            ],
            [
              40.433932635798556,
              -4.298685609945428
            ],
            [
              39.07588882533146,
              -3.740924980497981
            ]
          ]
        ]
      },
      "id": "2533",
      "properties": {
        "id": "2533",
        "license": "ISC",
        "sourceUrl": "https://github.com/am2222/webDggrid"
      }
    },
    {
      "type": "Feature",
      "geometry": {
        "type": "Polygon",
        "coordinates": [
          [
            [
              124.3983592803193,
              27.211405762480634
            ],
            [
              123.30279576252634,
              26.18288258919757
            ],
            [
              123.93885802152079,
              24.85832404075017
            ],
            [
              125.64614334516476,
              24.576424712710192
            ],
            [
              126.7560693190604,
              25.612578138007272
            ],
            [
              126.14582550696521,
              26.92267869288342
            ],
            [
              124.3983592803193,
              27.211405762480634
            ]
          ]
        ]
      },
      "id": "6338",
      "properties": {
        "id": "6338",
        "license": "ISC",
        "sourceUrl": "https://github.com/am2222/webDggrid"
      }
    },
    {
      "type": "Feature",
      "geometry": {
        "type": "Polygon",
        "coordinates": [
          [
            [
              55.29877430726313,
              -19.853765058636224
            ],
            [
              54.24153219309712,
              -20.902865101111058
            ],
            [
              54.83471398011779,
              -22.219319717964403
            ],
            [
              56.50734782388256,
              -22.495337307010825
            ],
            [
              57.55473945965272,
              -21.449407093947304
            ],
            [
              56.941962937082856,
              -20.124788045674233
            ],
            [
              55.29877430726313,
              -19.853765058636224
            ]
          ]
        ]
      },
      "id": "2497",
      "properties": {
        "id": "2497",
        "license": "ISC",
        "sourceUrl": "https://github.com/am2222/webDggrid"
      }
    },
    {
      "type": "Feature",
      "geometry": {
        "type": "Polygon",
        "coordinates": [
          [
            [
              45.58894251280547,
              -6.8591850432537775
            ],
            [
              44.614642325934646,
              -7.873830378399431
            ],
            [
              45.170892022602864,
              -9.232136523947185
            ],
            [
              46.71082159325637,
              -9.568008094595925
            ],
            [
              47.70386319403472,
              -8.541415582253977
            ],
            [
              47.14056969465542,
              -7.189429675583294
            ],
            [
              45.58894251280547,
              -6.8591850432537775
            ]
          ]
        ]
      },
      "id": "2558",
      "properties": {
        "id": "2558",
        "license": "ISC",
        "sourceUrl": "https://github.com/am2222/webDggrid"
      }
    },
    {
      "type": "Feature",
      "geometry": {
        "type": "Polygon",
        "coordinates": [
          [
            [
              163.18447091764074,
              -19.533345604816684
            ],
            [
              163.67879608529168,
              -21.146143990752854
            ],
            [
              165.4745031310653,
              -21.26113498336371
            ],
            [
              166.3827596893851,
              -20.18247383161896
            ],
            [
              165.50190912189,
              -19.012625264138247
            ],
            [
              164.10071361160675,
              -18.468146571245857
            ],
            [
              163.18447091764074,
              -19.533345604816684
            ]
          ]
        ]
      },
      "id": "5678",
      "properties": {
        "id": "5678",
        "license": "ISC",
        "sourceUrl": "https://github.com/am2222/webDggrid"
      }
    },
    {
      "type": "Feature",
      "geometry": {
        "type": "Polygon",
        "coordinates": [
          [
            [
              33.72773167900136,
              25.76121678469272
            ],
            [
              34.20014258052529,
              24.1983705722426
            ],
            [
              35.64469242554035,
              23.781565755233895
            ],
            [
              36.622760106948164,
              24.93154066774813
            ],
            [
              36.08880096620857,
              26.539210764395744
            ],
            [
              34.63232134015474,
              26.9546200388328
            ],
            [
              33.72773167900136,
              25.76121678469272
            ]
          ]
        ]
      },
      "id": "3093",
      "properties": {
        "id": "3093",
        "license": "ISC",
        "sourceUrl": "https://github.com/am2222/webDggrid"
      }
    },
    {
      "type": "Feature",
      "geometry": {
        "type": "Polygon",
        "coordinates": [
          [
            [
              -147.62831676113265,
              -16.3391867901555
            ],
            [
              -146.21151765866279,
              -15.906285002105767
            ],
            [
              -145.81471074394412,
              -14.393085162200842
            ],
            [
              -146.81665577236376,
              -13.322258734149685
            ],
            [
              -148.22088344126186,
              -13.758236127136303
            ],
            [
              -148.63582823138827,
              -15.262404266135668
            ],
            [
              -147.62831676113265,
              -16.3391867901555
            ]
          ]
        ]
      },
      "id": "4729",
      "properties": {
        "id": "4729",
        "license": "ISC",
        "sourceUrl": "https://github.com/am2222/webDggrid"
      }
    },
    {
      "type": "Feature",
      "geometry": {
        "type": "Polygon",
        "coordinates": [
          [
            [
              124.90687144191166,
              2.68521003844113
            ],
            [
              123.93914781634203,
              1.6577313426956757
            ],
            [
              124.54041657602065,
              0.34393717265418516
            ],
            [
              126.11712369448715,
              0.055205957777817345
            ],
            [
              127.0777071334917,
              1.0729621943367664
            ],
            [
              126.46930100110183,
              2.389558311364717
            ],
            [
              124.90687144191166,
              2.68521003844113
            ]
          ]
        ]
      },
      "id": "6084",
      "properties": {
        "id": "6084",
        "license": "ISC",
        "sourceUrl": "https://github.com/am2222/webDggrid"
      }
    },
    {
      "type": "Feature",
      "geometry": {
        "type": "Polygon",
        "coordinates": [
          [
            [
              47.246819004102896,
              -10.926353645366568
            ],
            [
              46.227165717960425,
              -11.955134765027202
            ],
            [
              46.74084767437179,
              -13.312834044234531
            ],
            [
              48.29746856815597,
              -13.635851005187275
            ],
            [
              49.32719451671678,
              -12.601558250550168
            ],
            [
              48.79236984808758,
              -11.249985194600514
            ],
            [
              47.246819004102896,
              -10.926353645366568
            ]
          ]
        ]
      },
      "id": "2529",
      "properties": {
        "id": "2529",
        "license": "ISC",
        "sourceUrl": "https://github.com/am2222/webDggrid"
      }
    },
    {
      "type": "Feature",
      "geometry": {
        "type": "Polygon",
        "coordinates": [
          [
            [
              4.285484675415794,
              42.49722476937936
            ],
            [
              5.244303241369911,
              41.27438052185653
            ],
            [
              7.338148640574916,
              41.190371576006264
            ],
            [
              8.566255445914301,
              42.31925055575694
            ],
            [
              7.66616598103813,
              43.560425872528775
            ],
            [
              5.475983859868385,
              43.65528284214504
            ],
            [
              4.285484675415794,
              42.49722476937936
            ]
          ]
        ]
      },
      "id": "3402",
      "properties": {
        "id": "3402",
        "license": "ISC",
        "sourceUrl": "https://github.com/am2222/webDggrid"
      }
    },
    {
      "type": "Feature",
      "geometry": {
        "type": "Polygon",
        "coordinates": [
          [
            [
              127.84428593650556,
              30.267410185849098
            ],
            [
              126.66658335532694,
              29.255707998338902
            ],
            [
              127.28764228088995,
              27.948172211340292
            ],
            [
              129.05132291892906,
              27.647907129458446
            ],
            [
              130.242217729157,
              28.640292036309933
            ],
            [
              129.65728330732762,
              29.951536955079018
            ],
            [
              127.84428593650556,
              30.267410185849098
            ]
          ]
        ]
      },
      "id": "6393",
      "properties": {
        "id": "6393",
        "license": "ISC",
        "sourceUrl": "https://github.com/am2222/webDggrid"
      }
    },
    {
      "type": "Feature",
      "geometry": {
        "type": "Polygon",
        "coordinates": [
          [
            [
              -149.47859666187605,
              -18.262566723402863
            ],
            [
              -148.03983551504945,
              -17.844416725436304
            ],
            [
              -147.62831676113265,
              -16.3391867901555
            ],
            [
              -148.63582823138827,
              -15.262404266135668
            ],
            [
              -150.05989218844476,
              -15.685238265747962
            ],
            [
              -150.49132766422892,
              -17.180900054638855
            ],
            [
              -149.47859666187605,
              -18.262566723402863
            ]
          ]
        ]
      },
      "id": "4757",
      "properties": {
        "id": "4757",
        "license": "ISC",
        "sourceUrl": "https://github.com/am2222/webDggrid"
      }
    },
    {
      "type": "Feature",
      "geometry": {
        "type": "Polygon",
        "coordinates": [
          [
            [
              71.50877477634738,
              6.421993253946652
            ],
            [
              70.68312348681958,
              5.003867174301218
            ],
            [
              71.28069595190802,
              3.7440746660088693
            ],
            [
              72.7101783722601,
              3.8929960950701825
            ],
            [
              73.54658368261315,
              5.281593069436954
            ],
            [
              72.94347728773565,
              6.551241382163347
            ],
            [
              71.50877477634738,
              6.421993253946652
            ]
          ]
        ]
      },
      "id": "2884",
      "properties": {
        "id": "2884",
        "license": "ISC",
        "sourceUrl": "https://github.com/am2222/webDggrid"
      }
    },
    {
      "type": "Feature",
      "geometry": {
        "type": "Polygon",
        "coordinates": [
          [
            [
              -90.20489951098924,
              -1.9655532633512294
            ],
            [
              -89.5886054347093,
              -0.6656147296039924
            ],
            [
              -90.4113945652907,
              0.6656147296039915
            ],
            [
              -91.8497368437322,
              0.695707361996535
            ],
            [
              -92.46337791313644,
              -0.6016580695874653
            ],
            [
              -91.64054381565846,
              -1.9338144219788342
            ],
            [
              -90.20489951098924,
              -1.9655532633512294
            ]
          ]
        ]
      },
      "id": "1109",
      "properties": {
        "id": "1109",
        "license": "ISC",
        "sourceUrl": "https://github.com/am2222/webDggrid"
      }
    },
    {
      "type": "Feature",
      "geometry": {
        "type": "Polygon",
        "coordinates": [
          [
            [
              55.68247307582245,
              -4.008486189881978
            ],
            [
              54.711225985986104,
              -5.041631952367318
            ],
            [
              55.29078307824619,
              -6.371448703658384
            ],
            [
              56.84619850612011,
              -6.659487653004599
            ],
            [
              57.82271867621346,
              -5.618573839913878
            ],
            [
              57.23943677172155,
              -4.297117511888775
            ],
            [
              55.68247307582245,
              -4.008486189881978
            ]
          ]
        ]
      },
      "id": "2666",
      "properties": {
        "id": "2666",
        "license": "ISC",
        "sourceUrl": "https://github.com/am2222/webDggrid"
      }
    },
    {
      "type": "Feature",
      "geometry": {
        "type": "Polygon",
        "coordinates": [
          [
            [
              127.28764228088995,
              27.948172211340292
            ],
            [
              126.14582550696521,
              26.92267869288342
            ],
            [
              126.7560693190604,
              25.612578138007272
            ],
            [
              128.47596911681845,
              25.32331669739422
            ],
            [
              129.62833020057616,
              26.333946072578307
            ],
            [
              129.05132291892906,
              27.647907129458446
            ],
            [
              127.28764228088995,
              27.948172211340292
            ]
          ]
        ]
      },
      "id": "6365",
      "properties": {
        "id": "6365",
        "license": "ISC",
        "sourceUrl": "https://github.com/am2222/webDggrid"
      }
    },
    {
      "type": "Feature",
      "geometry": {
        "type": "Polygon",
        "coordinates": [
          [
            [
              143.40516427981737,
              -15.01277841511144
            ],
            [
              143.78546588301108,
              -16.53705932489053
            ],
            [
              145.19380068431443,
              -16.982399885192656
            ],
            [
              146.2115176569819,
              -15.906285002547623
            ],
            [
              145.81471074211044,
              -14.393085162678675
            ],
            [
              144.4169329586407,
              -13.945224826012518
            ],
            [
              143.40516427981737,
              -15.01277841511144
            ]
          ]
        ]
      },
      "id": "5795",
      "properties": {
        "id": "5795",
        "license": "ISC",
        "sourceUrl": "https://github.com/am2222/webDggrid"
      }
    },
    {
      "type": "Feature",
      "geometry": {
        "type": "Polygon",
        "coordinates": [
          [
            [
              119.83352274662779,
              1.173195357470994
            ],
            [
              118.84974567308642,
              0.12389255577697698
            ],
            [
              119.44477211790668,
              -1.1591533239906102
            ],
            [
              121.02346638959781,
              -1.4190739704214617
            ],
            [
              121.99848980569195,
              -0.39447049206252666
            ],
            [
              121.40303263068887,
              0.9147873647708813
            ],
            [
              119.83352274662779,
              1.173195357470994
            ]
          ]
        ]
      },
      "id": "6030",
      "properties": {
        "id": "6030",
        "license": "ISC",
        "sourceUrl": "https://github.com/am2222/webDggrid"
      }
    },
    {
      "type": "Feature",
      "geometry": {
        "type": "Polygon",
        "coordinates": [
          [
            [
              117.66867683284055,
              2.6896236326931433
            ],
            [
              116.6778425509421,
              1.637422414894307
            ],
            [
              117.26739130143662,
              0.35987824473301344
            ],
            [
              118.84974567308642,
              0.12389255577697698
            ],
            [
              119.83352274662779,
              1.173195357470994
            ],
            [
              119.24246654394688,
              2.460813958718501
            ],
            [
              117.66867683284055,
              2.6896236326931433
            ]
          ]
        ]
      },
      "id": "6031",
      "properties": {
        "id": "6031",
        "license": "ISC",
        "sourceUrl": "https://github.com/am2222/webDggrid"
      }
    }
  ]
}
